{"type": "FeatureCollection", "features": [{"type": "Feature", "geometry": {"type": "Point", "coordinates": [-0.4106472135, 39.4408111572]}, "properties": {"stop_id": "20", "stop_name": "València Sud", "street_name": "València Sud", "zone_id": "A", "lines": [1, 2, 7]}}, {"type": "Feature", "geometry": {"type": "Point", "coordinates": [-0.4180611074, 39.4322624207]}, "properties": {"stop_id": "19", "stop_name": "Paiporta", "street_name": "Paiporta", "zone_id": "A B", "lines": [1, 2, 7]}}, {"type": "Feature", "geometry": {"type": "Point", "coordinates": [-0.4371583462, 39.4331207275]}, "properties": {"stop_id": "18", "stop_name": "Picanya", "street_name": "Picanya", "zone_id": "A B", "lines": [1, 2, 7]}}, {"type": "Feature", "geometry": {"type": "Point", "coordinates": [-0.4609861076, 39.4346466064]}, "properties": {"stop_id": "17", "stop_name": "Torrent", "street_name": "Torrent", "zone_id": "A B", "lines": [1, 2, 7]}}, {"type": "Feature", "geometry": {"type": "Point", "coordinates": [-0.4606527686, 39.4231338501]}, "properties": {"stop_id": "16", "stop_name": "Col·legi El Vedat", "street_name": "Col·legi El Vedat", "zone_id": "A B", "lines": [1]}}, {"type": "Feature", "geometry": {"type": "Point", "coordinates": [-0.4640137851, 39.3939056396]}, "properties": {"stop_id": "15", "stop_name": "Realón", "street_name": "Realón", "zone_id": "A B", "lines": [1]}}, {"type": "Feature", "geometry": {"type": "Point", "coordinates": [-0.4672611058, 39.3848648071]}, "properties": {"stop_id": "14", "stop_name": "Sant Ramon", "street_name": "Sant Ramon", "zone_id": "A B", "lines": [1]}}, {"type": "Feature", "geometry": {"type": "Point", "coordinates": [-0.4648583233, 39.3630371094]}, "properties": {"stop_id": "13", "stop_name": "Picassent", "street_name": "Picassent", "zone_id": "A B", "lines": [1]}}, {"type": "Feature", "geometry": {"type": "Point", "coordinates": [-0.4736869931, 39.3532447815]}, "properties": {"stop_id": "12", "stop_name": "Omet", "street_name": "Omet", "zone_id": "A B", "lines": [1]}}, {"type": "Feature", "geometry": {"type": "Point", "coordinates": [-0.4667472243, 39.3218841553]}, "properties": {"stop_id": "11", "stop_name": "Espioca", "street_name": "Espioca", "zone_id": "A B", "lines": [1]}}, {"type": "Feature", "geometry": {"type": "Point", "coordinates": [-0.4640861154, 39.2894058228]}, "properties": {"stop_id": "10", "stop_name": "Font Almaguer", "street_name": "Font Almaguer", "zone_id": "B", "lines": [1]}}, {"type": "Feature", "geometry": {"type": "Point", "coordinates": [-0.4748860002, 39.2629394531]}, "properties": {"stop_id": "9", "stop_name": "Alginet", "street_name": "Alginet", "zone_id": "B", "lines": [1]}}, {"type": "Feature", "geometry": {"type": "Point", "coordinates": [-0.4919772148, 39.2495574951]}, "properties": {"stop_id": "8", "stop_name": "Ausiàs March", "street_name": "Ausiàs March", "zone_id": "B", "lines": [1]}}, {"type": "Feature", "geometry": {"type": "Point", "coordinates": [-0.5249416828, 39.2267990112]}, "properties": {"stop_id": "7", "stop_name": "Carlet", "street_name": "Carlet", "zone_id": "B", "lines": [1]}}, {"type": "Feature", "geometry": {"type": "Point", "coordinates": [-0.5196194649, 39.216293335]}, "properties": {"stop_id": "6", "stop_name": "Benimodo", "street_name": "Benimodo", "zone_id": "B", "lines": [1]}}, {"type": "Feature", "geometry": {"type": "Point", "coordinates": [-0.5102638602, 39.193813324]}, "properties": {"stop_id": "5", "stop_name": "L'Alcúdia", "street_name": "L'Alcúdia", "zone_id": "B", "lines": [1]}}, {"type": "Feature", "geometry": {"type": "Point", "coordinates": [-0.5158861279, 39.1737976074]}, "properties": {"stop_id": "4", "stop_name": "Montortal", "street_name": "Montortal", "zone_id": "B", "lines": [1]}}, {"type": "Feature", "geometry": {"type": "Point", "coordinates": [-0.5187610984, 39.1438064575]}, "properties": {"stop_id": "3", "stop_name": "Massalavés", "street_name": "Massalavés", "zone_id": "B", "lines": [1]}}, {"type": "Feature", "geometry": {"type": "Point", "coordinates": [-0.5235260129, 39.1170501709]}, "properties": {"stop_id": "2", "stop_name": "Alberic", "street_name": "Alberic", "zone_id": "B", "lines": [1]}}, {"type": "Feature", "geometry": {"type": "Point", "coordinates": [-0.5160138607, 39.0840072632]}, "properties": {"stop_id": "1", "stop_name": "Castelló", "street_name": "Castelló", "zone_id": "B", "lines": [1]}}, {"type": "Feature", "geometry": {"type": "Point", "coordinates": [-0.4021083415, 39.4995765686]}, "properties": {"stop_id": "29", "stop_name": "Empalme", "street_name": "Empalme", "zone_id": "A", "lines": [1, 2, 4]}}, {"type": "Feature", "geometry": {"type": "Point", "coordinates": [-0.3993369341, 39.4910316467]}, "properties": {"stop_id": "28", "stop_name": "Beniferri", "street_name": "Beniferri", "zone_id": "A", "lines": [1, 2]}}, {"type": "Feature", "geometry": {"type": "Point", "coordinates": [-0.3950361013, 39.4846305847]}, "properties": {"stop_id": "27", "stop_name": "Campanar", "street_name": "Campanar", "zone_id": "A", "lines": [1, 2]}}, {"type": "Feature", "geometry": {"type": "Point", "coordinates": [-0.3912055492, 39.4788665771]}, "properties": {"stop_id": "26", "stop_name": "Túria", "street_name": "Túria", "zone_id": "A", "lines": [1, 2]}}, {"type": "Feature", "geometry": {"type": "Point", "coordinates": [-0.3850361109, 39.4703025818]}, "properties": {"stop_id": "25", "stop_name": "Àngel Guimerà", "street_name": "Àngel Guimerà", "zone_id": "A", "lines": [1, 2, 3, 5, 9]}}, {"type": "Feature", "geometry": {"type": "Point", "coordinates": [-0.3816333413, 39.4662017822]}, "properties": {"stop_id": "24", "stop_name": "Pl. Espanya", "street_name": "Pl. Espanya", "zone_id": "A", "lines": [1, 2]}}, {"type": "Feature", "geometry": {"type": "Point", "coordinates": [-0.3845416605, 39.4592018127]}, "properties": {"stop_id": "23", "stop_name": "Jesús", "street_name": "Jesús", "zone_id": "A", "lines": [1, 2, 7]}}, {"type": "Feature", "geometry": {"type": "Point", "coordinates": [-0.3905083239, 39.456451416]}, "properties": {"stop_id": "22", "stop_name": "Patraix", "street_name": "Patraix", "zone_id": "A", "lines": [1, 2, 7]}}, {"type": "Feature", "geometry": {"type": "Point", "coordinates": [-0.3983833194, 39.4545707703]}, "properties": {"stop_id": "21", "stop_name": "Safranar", "street_name": "Safranar", "zone_id": "A", "lines": [1, 2, 7]}}, {"type": "Feature", "geometry": {"type": "Point", "coordinates": [-0.4028027654, 39.4510345459]}, "properties": {"stop_id": "78", "stop_name": "Sant Isidre", "street_name": "Sant Isidre", "zone_id": "A", "lines": [1, 2, 7]}}, {"type": "Feature", "geometry": {"type": "Point", "coordinates": [-0.4575305581, 39.5906066895]}, "properties": {"stop_id": "39", "stop_name": "Bétera", "street_name": "Bétera", "zone_id": "B", "lines": [1]}}, {"type": "Feature", "geometry": {"type": "Point", "coordinates": [-0.4431444407, 39.5819320679]}, "properties": {"stop_id": "38", "stop_name": "Horta Vella", "street_name": "Horta Vella", "zone_id": "B", "lines": [1]}}, {"type": "Feature", "geometry": {"type": "Point", "coordinates": [-0.4053777754, 39.5665817261]}, "properties": {"stop_id": "37", "stop_name": "Masies", "street_name": "Masies", "zone_id": "A B", "lines": [1]}}, {"type": "Feature", "geometry": {"type": "Point", "coordinates": [-0.3897444308, 39.549987793]}, "properties": {"stop_id": "36", "stop_name": "Seminari - CEU", "street_name": "Seminari - CEU", "zone_id": "A B", "lines": [1]}}, {"type": "Feature", "geometry": {"type": "Point", "coordinates": [-0.388461113, 39.5435295105]}, "properties": {"stop_id": "35", "stop_name": "Moncada - Alfara", "street_name": "Moncada - Alfara", "zone_id": "A B", "lines": [1]}}, {"type": "Feature", "geometry": {"type": "Point", "coordinates": [-0.4028777778, 39.5366096497]}, "properties": {"stop_id": "34", "stop_name": "Massarrojos", "street_name": "Massarrojos", "zone_id": "A B", "lines": [1]}}, {"type": "Feature", "geometry": {"type": "Point", "coordinates": [-0.4075777829, 39.5287094116]}, "properties": {"stop_id": "33", "stop_name": "Rocafort", "street_name": "Rocafort", "zone_id": "A B", "lines": [1]}}, {"type": "Feature", "geometry": {"type": "Point", "coordinates": [-0.4144555628, 39.5195045471]}, "properties": {"stop_id": "32", "stop_name": "Godella", "street_name": "Godella", "zone_id": "A B", "lines": [1]}}, {"type": "Feature", "geometry": {"type": "Point", "coordinates": [-0.4119972289, 39.5135307312]}, "properties": {"stop_id": "31", "stop_name": "Burjassot - Godella", "street_name": "Burjassot - Godella", "zone_id": "A B", "lines": [1]}}, {"type": "Feature", "geometry": {"type": "Point", "coordinates": [-0.4067361057, 39.5084152222]}, "properties": {"stop_id": "30", "stop_name": "Burjassot", "street_name": "Burjassot", "zone_id": "A B", "lines": [1]}}, {"type": "Feature", "geometry": {"type": "Point", "coordinates": [-0.4728333354, 39.4318122864]}, "properties": {"stop_id": "107", "stop_name": "Torrent Avinguda", "street_name": "Torrent Avinguda", "zone_id": "A B", "lines": [1, 2, 7]}}, {"type": "Feature", "geometry": {"type": "Point", "coordinates": [-0.4419719875, 39.4988098145]}, "properties": {"stop_id": "44", "stop_name": "Paterna", "street_name": "Paterna", "zone_id": "A B", "lines": [2]}}, {"type": "Feature", "geometry": {"type": "Point", "coordinates": [-0.435323, 39.4958457947]}, "properties": {"stop_id": "43", "stop_name": "Campament", "street_name": "Campament", "zone_id": "A B", "lines": [2]}}, {"type": "Feature", "geometry": {"type": "Point", "coordinates": [-0.4254194498, 39.4987373352]}, "properties": {"stop_id": "42", "stop_name": "Les Carolines - Fira", "street_name": "Les Carolines - Fira", "zone_id": "A B", "lines": [2]}}, {"type": "Feature", "geometry": {"type": "Point", "coordinates": [-0.4194111228, 39.5018768311]}, "properties": {"stop_id": "41", "stop_name": "Benimàmet", "street_name": "Benimàmet", "zone_id": "A B", "lines": [2]}}, {"type": "Feature", "geometry": {"type": "Point", "coordinates": [-0.4120722115, 39.5023803711]}, "properties": {"stop_id": "40", "stop_name": "Cantereria", "street_name": "Cantereria", "zone_id": "A B", "lines": [2]}}, {"type": "Feature", "geometry": {"type": "Point", "coordinates": [-0.590277791, 39.6228408813]}, "properties": {"stop_id": "54", "stop_name": "Llíria", "street_name": "Llíria", "zone_id": "B", "lines": [2]}}, {"type": "Feature", "geometry": {"type": "Point", "coordinates": [-0.5839277506, 39.5988807678]}, "properties": {"stop_id": "53", "stop_name": "Benaguasil", "street_name": "Benaguasil", "zone_id": "B", "lines": [2]}}, {"type": "Feature", "geometry": {"type": "Point", "coordinates": [-0.5780805349, 39.5927238464]}, "properties": {"stop_id": "52", "stop_name": "Fondo de Benaguasil", "street_name": "Fondo de Benaguasil", "zone_id": "B", "lines": [2]}}, {"type": "Feature", "geometry": {"type": "Point", "coordinates": [-0.5622777939, 39.5827636719]}, "properties": {"stop_id": "51", "stop_name": "La Pobla de Vallbona", "street_name": "La Pobla de Vallbona", "zone_id": "B", "lines": [2]}}, {"type": "Feature", "geometry": {"type": "Point", "coordinates": [-0.5419166684, 39.5686645508]}, "properties": {"stop_id": "119", "stop_name": "Gallipont - Torre del Virrei", "street_name": "Gallipont - Torre del Virrei", "zone_id": "B", "lines": [2]}}, {"type": "Feature", "geometry": {"type": "Point", "coordinates": [-0.5359194279, 39.561832428]}, "properties": {"stop_id": "50", "stop_name": "L'Eliana", "street_name": "L'Eliana", "zone_id": "B", "lines": [2]}}, {"type": "Feature", "geometry": {"type": "Point", "coordinates": [-0.5316972136, 39.5555725098]}, "properties": {"stop_id": "49", "stop_name": "Montesol", "street_name": "Montesol", "zone_id": "B", "lines": [2]}}, {"type": "Feature", "geometry": {"type": "Point", "coordinates": [-0.5279861093, 39.5498657227]}, "properties": {"stop_id": "48", "stop_name": "El Clot", "street_name": "El Clot", "zone_id": "B", "lines": [2]}}, {"type": "Feature", "geometry": {"type": "Point", "coordinates": [-0.5139539838, 39.5433349609]}, "properties": {"stop_id": "65", "stop_name": "Entrepins", "street_name": "Entrepins", "zone_id": "B", "lines": [2]}}, {"type": "Feature", "geometry": {"type": "Point", "coordinates": [-0.4979777634, 39.5378417969]}, "properties": {"stop_id": "47", "stop_name": "La Vallesa", "street_name": "La Vallesa", "zone_id": "A B", "lines": [2]}}, {"type": "Feature", "geometry": {"type": "Point", "coordinates": [-0.4871222079, 39.5268058777]}, "properties": {"stop_id": "46", "stop_name": "La Canyada", "street_name": "La Canyada", "zone_id": "A B", "lines": [2]}}, {"type": "Feature", "geometry": {"type": "Point", "coordinates": [-0.4645166695, 39.5111732483]}, "properties": {"stop_id": "45", "stop_name": "Fuente del Jarro", "street_name": "Fuente del Jarro", "zone_id": "A B", "lines": [2]}}, {"type": "Feature", "geometry": {"type": "Point", "coordinates": [-0.4551055431, 39.505657196]}, "properties": {"stop_id": "77", "stop_name": "Santa Rita", "street_name": "Santa Rita", "zone_id": "A B", "lines": [2]}}, {"type": "Feature", "geometry": {"type": "Point", "coordinates": [-0.3587944508, 39.4924316406]}, "properties": {"stop_id": "66", "stop_name": "Machado", "street_name": "Machado", "zone_id": "A", "lines": [3, 5, 7, 9]}}, {"type": "Feature", "geometry": {"type": "Point", "coordinates": [-0.3623333275, 39.4848518372]}, "properties": {"stop_id": "67", "stop_name": "Benimaclet", "street_name": "Benimaclet", "zone_id": "A", "lines": [3, 4, 5, 6, 7, 9]}}, {"type": "Feature", "geometry": {"type": "Point", "coordinates": [-0.361905545, 39.4780044556]}, "properties": {"stop_id": "68", "stop_name": "Facultats - Manuel Broseta", "street_name": "Facultats - Manuel Broseta", "zone_id": "A", "lines": [3, 5, 7, 9]}}, {"type": "Feature", "geometry": {"type": "Point", "coordinates": [-0.3653166592, 39.4731559753]}, "properties": {"stop_id": "69", "stop_name": "Alameda", "street_name": "Alameda", "zone_id": "A", "lines": [3, 5, 7, 9]}}, {"type": "Feature", "geometry": {"type": "Point", "coordinates": [-0.3709277809, 39.4701461792]}, "properties": {"stop_id": "70", "stop_name": "Colón", "street_name": "Colón", "zone_id": "A", "lines": [3, 5, 7, 9]}}, {"type": "Feature", "geometry": {"type": "Point", "coordinates": [-0.3773750067, 39.4671859741]}, "properties": {"stop_id": "71", "stop_name": "Xàtiva", "street_name": "Xàtiva", "zone_id": "A", "lines": [3, 5, 9]}}, {"type": "Feature", "geometry": {"type": "Point", "coordinates": [-0.397574991, 39.4682197571]}, "properties": {"stop_id": "73", "stop_name": "Av. del Cid", "street_name": "Av. del Cid", "zone_id": "A", "lines": [3, 5, 9]}}, {"type": "Feature", "geometry": {"type": "Point", "coordinates": [-0.4076305628, 39.4706573486]}, "properties": {"stop_id": "74", "stop_name": "Nou d'Octubre", "street_name": "Nou d'Octubre", "zone_id": "A", "lines": [3, 5, 9]}}, {"type": "Feature", "geometry": {"type": "Point", "coordinates": [-0.418305546, 39.4738235474]}, "properties": {"stop_id": "75", "stop_name": "Mislata", "street_name": "Mislata", "zone_id": "A B", "lines": [3, 5, 9]}}, {"type": "Feature", "geometry": {"type": "Point", "coordinates": [-0.4243694544, 39.4760093689]}, "properties": {"stop_id": "76", "stop_name": "Mislata Almassil", "street_name": "Mislata Almassil", "zone_id": "A B", "lines": [3, 5, 9]}}, {"type": "Feature", "geometry": {"type": "Point", "coordinates": [-0.4331833422, 39.4776191711]}, "properties": {"stop_id": "177", "stop_name": "Faitanar", "street_name": "Faitanar", "zone_id": "A B", "lines": [3, 5, 9]}}, {"type": "Feature", "geometry": {"type": "Point", "coordinates": [-0.441880554, 39.481086731]}, "properties": {"stop_id": "178", "stop_name": "Quart de Poblet", "street_name": "Quart de Poblet", "zone_id": "A B", "lines": [3, 5, 9]}}, {"type": "Feature", "geometry": {"type": "Point", "coordinates": [-0.4505681992, 39.4848327637]}, "properties": {"stop_id": "179", "stop_name": "Salt de l'Aigua", "street_name": "Salt de l'Aigua", "zone_id": "A B", "lines": [3, 5, 9]}}, {"type": "Feature", "geometry": {"type": "Point", "coordinates": [-0.4590654373, 39.4895896912]}, "properties": {"stop_id": "180", "stop_name": "Manises", "street_name": "Manises", "zone_id": "A B", "lines": [3, 5, 9]}}, {"type": "Feature", "geometry": {"type": "Point", "coordinates": [-0.4672361016, 39.4926490784]}, "properties": {"stop_id": "181", "stop_name": "Roses", "street_name": "Roses", "zone_id": "A B", "lines": [3, 5, 9]}}, {"type": "Feature", "geometry": {"type": "Point", "coordinates": [-0.4749194384, 39.4923667908]}, "properties": {"stop_id": "182", "stop_name": "Aeroport", "street_name": "Aeroport", "zone_id": "+", "lines": [3, 5]}}, {"type": "Feature", "geometry": {"type": "Point", "coordinates": [-0.3310583234, 39.5885238647]}, "properties": {"stop_id": "64", "stop_name": "Rafelbunyol", "street_name": "Rafelbunyol", "zone_id": "A B", "lines": [3]}}, {"type": "Feature", "geometry": {"type": "Point", "coordinates": [-0.3304361105, 39.5794181824]}, "properties": {"stop_id": "63", "stop_name": "La Pobla de Farnals", "street_name": "La Pobla de Farnals", "zone_id": "A B", "lines": [3]}}, {"type": "Feature", "geometry": {"type": "Point", "coordinates": [-0.3330333233, 39.5705604553]}, "properties": {"stop_id": "62", "stop_name": "Massamagrell", "street_name": "Massamagrell", "zone_id": "A B", "lines": [3]}}, {"type": "Feature", "geometry": {"type": "Point", "coordinates": [-0.3408555686, 39.5615768433]}, "properties": {"stop_id": "61", "stop_name": "Museros", "street_name": "Museros", "zone_id": "A B", "lines": [3]}}, {"type": "Feature", "geometry": {"type": "Point", "coordinates": [-0.3482888937, 39.5452651978]}, "properties": {"stop_id": "60", "stop_name": "Albalat dels Sorells", "street_name": "Albalat dels Sorells", "zone_id": "A B", "lines": [3]}}, {"type": "Feature", "geometry": {"type": "Point", "coordinates": [-0.3538694382, 39.5372238159]}, "properties": {"stop_id": "59", "stop_name": "Foios", "street_name": "Foios", "zone_id": "A B", "lines": [3]}}, {"type": "Feature", "geometry": {"type": "Point", "coordinates": [-0.3518194556, 39.5280303955]}, "properties": {"stop_id": "58", "stop_name": "Meliana", "street_name": "Meliana", "zone_id": "A B", "lines": [3]}}, {"type": "Feature", "geometry": {"type": "Point", "coordinates": [-0.3542666733, 39.5122566223]}, "properties": {"stop_id": "57", "stop_name": "Almàssera", "street_name": "Almàssera", "zone_id": "A B", "lines": [3]}}, {"type": "Feature", "geometry": {"type": "Point", "coordinates": [-0.352327764, 39.5007629395]}, "properties": {"stop_id": "56", "stop_name": "Alboraia Peris Aragó", "street_name": "Alboraia Peris Aragó", "zone_id": "A B", "lines": [3, 9]}}, {"type": "Feature", "geometry": {"type": "Point", "coordinates": [-0.3552222252, 39.4956626892]}, "properties": {"stop_id": "79", "stop_name": "Alboraia Palmaret", "street_name": "Alboraia Palmaret", "zone_id": "A B", "lines": [3, 9]}}, {"type": "Feature", "geometry": {"type": "Point", "coordinates": [-0.3382369876, 39.4649391174]}, "properties": {"stop_id": "123", "stop_name": "Marítim", "street_name": "Marítim", "zone_id": "A", "lines": [5, 6, 7, 8]}}, {"type": "Feature", "geometry": {"type": "Point", "coordinates": [-0.3429694474, 39.4664268494]}, "properties": {"stop_id": "122", "stop_name": "Ayora", "street_name": "Ayora", "zone_id": "A", "lines": [5, 7]}}, {"type": "Feature", "geometry": {"type": "Point", "coordinates": [-0.3503944576, 39.4703330994]}, "properties": {"stop_id": "121", "stop_name": "Amistat", "street_name": "Amistat", "zone_id": "A", "lines": [5, 7]}}, {"type": "Feature", "geometry": {"type": "Point", "coordinates": [-0.3581166565, 39.4726257324]}, "properties": {"stop_id": "120", "stop_name": "Aragó", "street_name": "Aragó", "zone_id": "A", "lines": [5, 7]}}, {"type": "Feature", "geometry": {"type": "Point", "coordinates": [-0.3794222176, 39.4639778137]}, "properties": {"stop_id": "108", "stop_name": "Bailén", "street_name": "Bailén", "zone_id": "A", "lines": [7]}}, {"type": "Feature", "geometry": {"type": "Point", "coordinates": [-0.4844444394, 39.4988899231]}, "properties": {"stop_id": "183", "stop_name": "La Cova", "street_name": "La Cova", "zone_id": "A B", "lines": [9]}}, {"type": "Feature", "geometry": {"type": "Point", "coordinates": [-0.5158333182, 39.5172233582]}, "properties": {"stop_id": "184", "stop_name": "La Presa", "street_name": "La Presa", "zone_id": "A B", "lines": [9]}}, {"type": "Feature", "geometry": {"type": "Point", "coordinates": [-0.5342069864, 39.5304832458]}, "properties": {"stop_id": "188", "stop_name": "València la Vella", "street_name": "València la Vella", "zone_id": "B", "lines": [9]}}, {"type": "Feature", "geometry": {"type": "Point", "coordinates": [-0.5466666818, 39.5380554199]}, "properties": {"stop_id": "185", "stop_name": "Masia de Traver", "street_name": "Masia de Traver", "zone_id": "B", "lines": [9]}}, {"type": "Feature", "geometry": {"type": "Point", "coordinates": [-0.5594444275, 39.5433349609]}, "properties": {"stop_id": "186", "stop_name": "Riba-roja de Túria", "street_name": "Riba-roja de Túria", "zone_id": "B", "lines": [9]}}, {"type": "Feature", "geometry": {"type": "Point", "coordinates": [-0.3342027664, 39.4765930176]}, "properties": {"stop_id": "94", "stop_name": "Beteró", "street_name": "Beteró", "zone_id": "A", "lines": [4, 6]}}, {"type": "Feature", "geometry": {"type": "Point", "coordinates": [-0.3396222293, 39.47813797]}, "properties": {"stop_id": "93", "stop_name": "Tarongers - Ernest Lluch", "street_name": "Tarongers - Ernest Lluch", "zone_id": "A", "lines": [4, 6]}}, {"type": "Feature", "geometry": {"type": "Point", "coordinates": [-0.3448249996, 39.4796600342]}, "properties": {"stop_id": "92", "stop_name": "La Carrasca", "street_name": "La Carrasca", "zone_id": "A", "lines": [4, 6]}}, {"type": "Feature", "geometry": {"type": "Point", "coordinates": [-0.3504999876, 39.4813156128]}, "properties": {"stop_id": "91", "stop_name": "Universitat Politècnica", "street_name": "Universitat Politècnica", "zone_id": "A", "lines": [4, 6]}}, {"type": "Feature", "geometry": {"type": "Point", "coordinates": [-0.3579472303, 39.4833717346]}, "properties": {"stop_id": "90", "stop_name": "Vicente Zaragozá", "street_name": "Vicente Zaragozá", "zone_id": "A", "lines": [4, 6]}}, {"type": "Feature", "geometry": {"type": "Point", "coordinates": [-0.3677638769, 39.4862709045]}, "properties": {"stop_id": "88", "stop_name": "Trinitat", "street_name": "Trinitat", "zone_id": "A", "lines": [4, 6]}}, {"type": "Feature", "geometry": {"type": "Point", "coordinates": [-0.3731805682, 39.4817810059]}, "properties": {"stop_id": "87", "stop_name": "Pont de Fusta", "street_name": "Pont de Fusta", "zone_id": "A", "lines": [4]}}, {"type": "Feature", "geometry": {"type": "Point", "coordinates": [-0.3749722242, 39.4864997864]}, "properties": {"stop_id": "86", "stop_name": "Sagunt", "street_name": "Sagunt", "zone_id": "A", "lines": [4]}}, {"type": "Feature", "geometry": {"type": "Point", "coordinates": [-0.3817070127, 39.4859657288]}, "properties": {"stop_id": "85", "stop_name": "Reus", "street_name": "Reus", "zone_id": "A", "lines": [4]}}, {"type": "Feature", "geometry": {"type": "Point", "coordinates": [-0.3838368952, 39.4879722595]}, "properties": {"stop_id": "84", "stop_name": "Marxalenes", "street_name": "Marxalenes", "zone_id": "A", "lines": [4]}}, {"type": "Feature", "geometry": {"type": "Point", "coordinates": [-0.387258321, 39.4895629883]}, "properties": {"stop_id": "83", "stop_name": "Trànsits", "street_name": "Trànsits", "zone_id": "A", "lines": [4]}}, {"type": "Feature", "geometry": {"type": "Point", "coordinates": [-0.3909277916, 39.4900283813]}, "properties": {"stop_id": "82", "stop_name": "Benicalap", "street_name": "Benicalap", "zone_id": "A", "lines": [4]}}, {"type": "Feature", "geometry": {"type": "Point", "coordinates": [-0.3945111036, 39.4922904968]}, "properties": {"stop_id": "81", "stop_name": "Garbí", "street_name": "Garbí", "zone_id": "A", "lines": [4]}}, {"type": "Feature", "geometry": {"type": "Point", "coordinates": [-0.3968166709, 39.4944343567]}, "properties": {"stop_id": "80", "stop_name": "Florista", "street_name": "Florista", "zone_id": "A", "lines": [4]}}, {"type": "Feature", "geometry": {"type": "Point", "coordinates": [-0.4001416564, 39.4971809387]}, "properties": {"stop_id": "55", "stop_name": "Palau de Congressos", "street_name": "Palau de Congressos", "zone_id": "A", "lines": [4]}}, {"type": "Feature", "geometry": {"type": "Point", "coordinates": [-0.4124779999, 39.504032135]}, "properties": {"stop_id": "105", "stop_name": "La Granja", "street_name": "La Granja", "zone_id": "A B", "lines": [4]}}, {"type": "Feature", "geometry": {"type": "Point", "coordinates": [-0.4163239896, 39.5052909851]}, "properties": {"stop_id": "104", "stop_name": "Sant Joan", "street_name": "Sant Joan", "zone_id": "A B", "lines": [4]}}, {"type": "Feature", "geometry": {"type": "Point", "coordinates": [-0.4174583256, 39.5072212219]}, "properties": {"stop_id": "103", "stop_name": "Campus", "street_name": "Campus", "zone_id": "A B", "lines": [4]}}, {"type": "Feature", "geometry": {"type": "Point", "coordinates": [-0.4198839962, 39.5085601807]}, "properties": {"stop_id": "102", "stop_name": "Vicent Andrés Estellés", "street_name": "Vicent Andrés Estellés", "zone_id": "A B", "lines": [4]}}, {"type": "Feature", "geometry": {"type": "Point", "coordinates": [-0.3281527758, 39.4693069458]}, "properties": {"stop_id": "98", "stop_name": "Dr. Lluch", "street_name": "Dr. Lluch", "zone_id": "A", "lines": [4, 6, 8]}}, {"type": "Feature", "geometry": {"type": "Point", "coordinates": [-0.3275833428, 39.4728546143]}, "properties": {"stop_id": "99", "stop_name": "Cabanyal", "street_name": "Cabanyal", "zone_id": "A", "lines": [4, 6]}}, {"type": "Feature", "geometry": {"type": "Point", "coordinates": [-0.3293749988, 39.4752044678]}, "properties": {"stop_id": "95", "stop_name": "La Cadena", "street_name": "La Cadena", "zone_id": "A", "lines": [4, 6, 8]}}, {"type": "Feature", "geometry": {"type": "Point", "coordinates": [-0.424748987, 39.5122032166]}, "properties": {"stop_id": "110", "stop_name": "À Punt", "street_name": "À Punt", "zone_id": "A B", "lines": [4]}}, {"type": "Feature", "geometry": {"type": "Point", "coordinates": [-0.4226219952, 39.5151405334]}, "properties": {"stop_id": "111", "stop_name": "Parc Científic", "street_name": "Parc Científic", "zone_id": "A B", "lines": [4]}}, {"type": "Feature", "geometry": {"type": "Point", "coordinates": [-0.4256361127, 39.5197715759]}, "properties": {"stop_id": "112", "stop_name": "Tomás y Valiente", "street_name": "Tomás y Valiente", "zone_id": "A B", "lines": [4]}}, {"type": "Feature", "geometry": {"type": "Point", "coordinates": [-0.4317069948, 39.521572113]}, "properties": {"stop_id": "113", "stop_name": "La Coma", "street_name": "La Coma", "zone_id": "A B", "lines": [4]}}, {"type": "Feature", "geometry": {"type": "Point", "coordinates": [-0.4358249903, 39.5249595642]}, "properties": {"stop_id": "114", "stop_name": "Mas del Rosari", "street_name": "Mas del Rosari", "zone_id": "A B", "lines": [4]}}, {"type": "Feature", "geometry": {"type": "Point", "coordinates": [-0.3660329878, 39.4892997742]}, "properties": {"stop_id": "128", "stop_name": "Alfauir", "street_name": "Alfauir", "zone_id": "A", "lines": [6]}}, {"type": "Feature", "geometry": {"type": "Point", "coordinates": [-0.3676636219, 39.4931488037]}, "properties": {"stop_id": "129", "stop_name": "Orriols", "street_name": "Orriols", "zone_id": "A", "lines": [6]}}, {"type": "Feature", "geometry": {"type": "Point", "coordinates": [-0.3655419946, 39.4949188232]}, "properties": {"stop_id": "130", "stop_name": "Estadi Ciutat de València", "street_name": "Estadi Ciutat de València", "zone_id": "A", "lines": [6]}}, {"type": "Feature", "geometry": {"type": "Point", "coordinates": [-0.3684949875, 39.4972190857]}, "properties": {"stop_id": "131", "stop_name": "Sant Miquel dels Reis", "street_name": "Sant Miquel dels Reis", "zone_id": "A", "lines": [6]}}, {"type": "Feature", "geometry": {"type": "Point", "coordinates": [-0.3725369871, 39.4959526062]}, "properties": {"stop_id": "132", "stop_name": "Tossal del Rei", "street_name": "Tossal del Rei", "zone_id": "A", "lines": [6]}}, {"type": "Feature", "geometry": {"type": "Point", "coordinates": [-0.4304472208, 39.5098991394]}, "properties": {"stop_id": "115", "stop_name": "Ll. Llarga - Terramelar", "street_name": "Ll. Llarga - Terramelar", "zone_id": "A B", "lines": [4]}}, {"type": "Feature", "geometry": {"type": "Point", "coordinates": [-0.3339729905, 39.4632453918]}, "properties": {"stop_id": "124", "stop_name": "Francesc Cubells", "street_name": "Francesc Cubells", "zone_id": "A", "lines": [6, 8]}}, {"type": "Feature", "geometry": {"type": "Point", "coordinates": [-0.3294720054, 39.4631004333]}, "properties": {"stop_id": "125", "stop_name": "Grau - La Marina", "street_name": "Grau - La Marina", "zone_id": "A", "lines": [6, 8]}}, {"type": "Feature", "geometry": {"type": "Point", "coordinates": [-0.3279320002, 39.4665222168]}, "properties": {"stop_id": "127", "stop_name": "Canyamelar", "street_name": "Canyamelar", "zone_id": "A", "lines": [6, 8]}}, {"type": "Feature", "geometry": {"type": "Point", "coordinates": [-0.3258508444, 39.4632530212]}, "properties": {"stop_id": "126", "stop_name": "Neptú", "street_name": "Neptú", "zone_id": "A", "lines": [8]}}, {"type": "Feature", "geometry": {"type": "Point", "coordinates": [-0.3257277906, 39.473690033]}, "properties": {"stop_id": "96", "stop_name": "Platja Malva-rosa", "street_name": "Platja Malva-rosa", "zone_id": "A", "lines": [4, 6, 8]}}, {"type": "Feature", "geometry": {"type": "Point", "coordinates": [-0.3257277906, 39.4689292908]}, "properties": {"stop_id": "97", "stop_name": "Platja les Arenes", "street_name": "Platja les Arenes", "zone_id": "A", "lines": [4, 6, 8]}}, {"type": "Feature", "geometry": {"type": "Point", "coordinates": [-0.377389, 39.463583]}, "properties": {"stop_id": "190", "stop_name": "Alacant", "street_name": "Alacant", "zone_id": "A", "lines": [10]}}, {"type": "Feature", "geometry": {"type": "Point", "coordinates": [-0.369531, 39.463913]}, "properties": {"stop_id": "191", "stop_name": "Russafa", "street_name": "Russafa", "zone_id": "A", "lines": [10]}}, {"type": "Feature", "geometry": {"type": "Point", "coordinates": [-0.36511, 39.459373]}, "properties": {"stop_id": "192", "stop_name": "Amado Granell - Montolivet", "street_name": "Amado Granell - Montolivet", "zone_id": "A", "lines": [10]}}, {"type": "Feature", "geometry": {"type": "Point", "coordinates": [-0.360125, 39.452447]}, "properties": {"stop_id": "193", "stop_name": "Quatre Carreres", "street_name": "Quatre Carreres", "zone_id": "A", "lines": [10]}}, {"type": "Feature", "geometry": {"type": "Point", "coordinates": [-0.353216, 39.452592]}, "properties": {"stop_id": "194", "stop_name": "Ciutat Arts i Ciències - Justícia", "street_name": "Ciutat Arts i Ciències - Justícia", "zone_id": "A", "lines": [10]}}, {"type": "Feature", "geometry": {"type": "Point", "coordinates": [-0.347342, 39.452038]}, "properties": {"stop_id": "195", "stop_name": "Oceanogràfic", "street_name": "Oceanogràfic", "zone_id": "A", "lines": [10]}}, {"type": "Feature", "geometry": {"type": "Point", "coordinates": [-0.338408, 39.45015]}, "properties": {"stop_id": "196", "stop_name": "Moreres", "street_name": "Moreres", "zone_id": "A", "lines": [10]}}, {"type": "Feature", "geometry": {"type": "Point", "coordinates": [-0.334674, 39.449889]}, "properties": {"stop_id": "197", "stop_name": "Natzaret", "street_name": "Natzaret", "zone_id": "A", "lines": [10]}}, {"type": "Feature", "geometry": {"type": "Point", "coordinates": [-0.4716618, 39.5168998]}, "properties": {"stop_id": "198", "stop_name": "Font del Barranc", "street_name": "Font del Barranc", "zone_id": "A B", "lines": [2]}}, {"type": "Feature", "geometry": {"type": "Point", "coordinates": [-0.4254944324, 39.5041427612]}, "properties": {"stop_id": "100", "stop_name": "Fira València", "street_name": "Fira València", "zone_id": "A B", "lines": [4]}}, {"type": "Feature", "geometry": {"type": "LineString", "coordinates": [[-0.4575305581, 39.5906066895], [-0.4494524002, 39.5868873596], [-0.4431444407, 39.5819320679], [-0.4285526276, 39.576385498], [-0.4110002518, 39.5658683777], [-0.4053777754, 39.5665817261], [-0.4022026062, 39.5669593811], [-0.3985548019, 39.5650405884], [-0.3897444308, 39.549987793], [-0.388461113, 39.5435295105], [-0.3888130188, 39.5404548645], [-0.4028777778, 39.5366096497], [-0.4075777829, 39.5287094116], [-0.4144555628, 39.5195045471], [-0.4119972289, 39.5135307312], [-0.4067361057, 39.5084152222], [-0.4021083415, 39.4995765686], [-0.3993369341, 39.4910316467], [-0.3950361013, 39.4846305847], [-0.3912055492, 39.4788665771], [-0.3850361109, 39.4703025818], [-0.3816333413, 39.4662017822], [-0.3845416605, 39.4592018127], [-0.3905083239, 39.456451416], [-0.3983833194, 39.4545707703], [-0.4028027654, 39.4510345459], [-0.4106472135, 39.4408111572], [-0.4180611074, 39.4322624207], [-0.4234027863, 39.4304580688], [-0.4371583462, 39.4331207275], [-0.4577350616, 39.4373207092], [-0.4602348804, 39.4369392395], [-0.4609861076, 39.4346466064], [-0.4606527686, 39.4231338501], [-0.4640137851, 39.3939056396], [-0.4672611058, 39.3848648071], [-0.4720258713, 39.3738212585], [-0.4648583233, 39.3630371094], [-0.4672622681, 39.3588218689], [-0.4736869931, 39.3532447815], [-0.4767465591, 39.3395767212], [-0.4667472243, 39.3218841553], [-0.4640436172, 39.317565918], [-0.4640861154, 39.2894058228], [-0.4653739929, 39.2775154114], [-0.4748860002, 39.2629394531], [-0.4919772148, 39.2495574951], [-0.5094051361, 39.2350120544], [-0.5228805542, 39.2328186035], [-0.5249416828, 39.2267990112], [-0.5196194649, 39.216293335], [-0.5097484589, 39.200466156], [-0.5102638602, 39.193813324], [-0.5158861279, 39.1737976074], [-0.5187610984, 39.1438064575], [-0.5235260129, 39.1170501709], [-0.5255413055, 39.1080169678], [-0.5228805542, 39.1020240784], [-0.5150699615, 39.0950317383], [-0.5160138607, 39.0840072632]]}, "properties": {"line": 1, "line_name": "Castelló", "type": "metro", "color": "#FEC601", "route_id": "V1-39-1", "direction": "Castelló → Bétera", "stops": ["Bétera", "Horta Vella", "Masies", "Seminari - CEU", "Moncada - Alfara", "Massarrojos", "Rocafort", "Godella", "Burjassot - Godella", "Burjassot", "Empalme", "Beniferri", "Campanar", "Túria", "Àngel Guimerà", "Pl. Espanya", "Jesús", "Patraix", "Safranar", "Sant Isidre", "València Sud", "Paiporta", "Picanya", "Torrent", "Col·legi El Vedat", "Realón", "Sant Ramon", "Picassent", "Omet", "Espioca", "Font Almaguer", "Alginet", "Ausiàs March", "Carlet", "Benimodo", "L'Alcúdia", "Montortal", "Massalavés", "Alberic", "Castelló"]}}, {"type": "Feature", "geometry": {"type": "LineString", "coordinates": [[-0.5160138607, 39.0840072632], [-0.5235260129, 39.1170501709], [-0.5187610984, 39.1438064575], [-0.5158861279, 39.1737976074], [-0.5102638602, 39.193813324], [-0.5196194649, 39.216293335], [-0.5249416828, 39.2267990112], [-0.4919772148, 39.2495574951], [-0.4748860002, 39.2629394531], [-0.4640861154, 39.2894058228], [-0.4667472243, 39.3218841553], [-0.4736869931, 39.3532447815], [-0.4648583233, 39.3630371094], [-0.4672611058, 39.3848648071], [-0.4640137851, 39.3939056396], [-0.4606527686, 39.4231338501], [-0.4609861076, 39.4346466064], [-0.4604816437, 39.4364585876], [-0.4593658447, 39.4372215271], [-0.4566192627, 39.4369888306], [-0.4371583462, 39.4331207275], [-0.4180611074, 39.4322624207], [-0.4106472135, 39.4408111572], [-0.4028027654, 39.4510345459], [-0.3983833194, 39.4545707703], [-0.3905083239, 39.456451416], [-0.3845416605, 39.4592018127], [-0.3816333413, 39.4662017822], [-0.3850361109, 39.4703025818], [-0.3912055492, 39.4788665771], [-0.3950361013, 39.4846305847], [-0.3993369341, 39.4910316467], [-0.4021083415, 39.4995765686], [-0.4067361057, 39.5084152222], [-0.4119972289, 39.5135307312], [-0.4144555628, 39.5195045471], [-0.4075777829, 39.5287094116], [-0.4028777778, 39.5366096497], [-0.388461113, 39.5435295105], [-0.3897444308, 39.549987793], [-0.4053777754, 39.5665817261], [-0.4431444407, 39.5819320679], [-0.4575305581, 39.5906066895]]}, "properties": {"line": 1, "line_name": "Bétera", "type": "metro", "color": "#FEC601", "route_id": "V1-1-39", "direction": "Bétera → Castelló", "stops": ["Castelló", "Alberic", "Massalavés", "Montortal", "L'Alcúdia", "Benimodo", "Carlet", "Ausiàs March", "Alginet", "Font Almaguer", "Espioca", "Omet", "Picassent", "Sant Ramon", "Realón", "Col·legi El Vedat", "Torrent", "Picanya", "Paiporta", "València Sud", "Sant Isidre", "Safranar", "Patraix", "Jesús", "Pl. Espanya", "Àngel Guimerà", "Túria", "Campanar", "Beniferri", "Empalme", "Burjassot", "Burjassot - Godella", "Godella", "Rocafort", "Massarrojos", "Moncada - Alfara", "Seminari - CEU", "Masies", "Horta Vella", "Bétera"]}}, {"type": "Feature", "geometry": {"type": "LineString", "coordinates": [[-0.590277791, 39.6228408813], [-0.5959117413, 39.6143951416], [-0.5962336063, 39.6133918762], [-0.5948925018, 39.6075401306], [-0.5839277506, 39.5988807678], [-0.5780805349, 39.5927238464], [-0.5622777939, 39.5827636719], [-0.5453681946, 39.572052002], [-0.5419166684, 39.5686645508], [-0.5359194279, 39.561832428], [-0.5316972136, 39.5555725098], [-0.5279861093, 39.5498657227], [-0.5225372314, 39.5435333252], [-0.5206489563, 39.5426902771], [-0.5189538002, 39.5424575806], [-0.5139539838, 39.5433349609], [-0.5108642578, 39.5439796448], [-0.509083271, 39.5440788269], [-0.5079030991, 39.5439300537], [-0.5065083504, 39.5434188843], [-0.4979777634, 39.5378417969], [-0.4912948608, 39.5325775146], [-0.4871222079, 39.5268058777], [-0.4816174507, 39.5234909058], [-0.4802763462, 39.5230522156], [-0.4710388184, 39.5194015503], [-0.4661035538, 39.5127334595], [-0.4645166695, 39.5111732483], [-0.4551055431, 39.505657196], [-0.448679924, 39.501625061], [-0.4419719875, 39.4988098145], [-0.4394102097, 39.4973754883], [-0.4368031025, 39.4961929321], [-0.435323, 39.4958457947], [-0.4323077202, 39.4950828552], [-0.4314386845, 39.4951095581], [-0.430752039, 39.4953804016], [-0.4286813736, 39.496383667], [-0.4265463352, 39.4975090027], [-0.4254194498, 39.4987373352], [-0.4234457016, 39.5003967285], [-0.4217505455, 39.5014076233], [-0.4206883907, 39.5018043518], [-0.4194111228, 39.5018768311], [-0.4176414013, 39.501914978], [-0.4159462452, 39.5015335083], [-0.4145944118, 39.5014228821], [-0.4136610031, 39.501739502], [-0.4120722115, 39.5023803711], [-0.4099702835, 39.5025177002], [-0.4077172279, 39.5027160645], [-0.406537056, 39.5027160645], [-0.4057860374, 39.5025520325], [-0.4048633575, 39.5020217896], [-0.4021083415, 39.4995765686], [-0.3993369341, 39.4910316467], [-0.3950361013, 39.4846305847], [-0.3912055492, 39.4788665771], [-0.3850361109, 39.4703025818], [-0.3816333413, 39.4662017822], [-0.3845416605, 39.4592018127], [-0.3905083239, 39.456451416], [-0.3983833194, 39.4545707703], [-0.4028027654, 39.4510345459], [-0.4049491882, 39.4485969543], [-0.4090690613, 39.4427986145], [-0.4106472135, 39.4408111572], [-0.4129528999, 39.437789917], [-0.415045023, 39.4349746704], [-0.4163110256, 39.433380127], [-0.4165792465, 39.4331130981], [-0.4168796539, 39.4328689575], [-0.4172927141, 39.432598114], [-0.4180611074, 39.4322624207], [-0.4229736328, 39.4304771423], [-0.4244327545, 39.4304428101], [-0.4371583462, 39.4331207275], [-0.4577350616, 39.4373855591], [-0.4592370987, 39.437286377], [-0.4602456093, 39.4369392395], [-0.4609861076, 39.4346466064], [-0.461769104, 39.4267463684], [-0.4634857178, 39.4259490967], [-0.4645586014, 39.4258842468], [-0.4666614532, 39.4265136719], [-0.4728333354, 39.4318122864]]}, "properties": {"line": 2, "line_name": "Torrent Avinguda", "type": "metro", "color": "#CE142B", "route_id": "V2-54-107", "direction": "Torrent Avinguda → Llíria", "stops": ["Llíria", "Benaguasil", "Fondo de Benaguasil", "La Pobla de Vallbona", "Gallipont - Torre del Virrei", "L'Eliana", "Montesol", "El Clot", "Entrepins", "La Vallesa", "La Canyada", "Font del Barranc", "Fuente del Jarro", "Santa Rita", "Paterna", "Campament", "Les Carolines - Fira", "Benimàmet", "Cantereria", "Empalme", "Beniferri", "Campanar", "Túria", "Àngel Guimerà", "Pl. Espanya", "Jesús", "Patraix", "Safranar", "Sant Isidre", "València Sud", "Paiporta", "Picanya", "Torrent", "Torrent Avinguda"]}}, {"type": "Feature", "geometry": {"type": "LineString", "coordinates": [[-0.4728333354, 39.4318122864], [-0.4670262337, 39.4267616272], [-0.4652452469, 39.4258842468], [-0.4628634453, 39.4259338379], [-0.4612970352, 39.4271278381], [-0.4609861076, 39.4346466064], [-0.4602885246, 39.436706543], [-0.4595804214, 39.4371871948], [-0.4583787918, 39.4373703003], [-0.4569625854, 39.4371871948], [-0.4371583462, 39.4331207275], [-0.4272222519, 39.4309234619], [-0.4242825508, 39.4304771423], [-0.4221796989, 39.4307556152], [-0.4180611074, 39.4322624207], [-0.41677773, 39.4329528809], [-0.4163324833, 39.4333534241], [-0.4150235653, 39.4350357056], [-0.4106472135, 39.4408111572], [-0.4028027654, 39.4510345459], [-0.3983833194, 39.4545707703], [-0.3905083239, 39.456451416], [-0.3845416605, 39.4592018127], [-0.3816333413, 39.4662017822], [-0.3850361109, 39.4703025818], [-0.3912055492, 39.4788665771], [-0.3950361013, 39.4846305847], [-0.3993369341, 39.4910316467], [-0.4021083415, 39.4995765686], [-0.4035866261, 39.5006752014], [-0.4041659832, 39.5013427734], [-0.4049813747, 39.5021781921], [-0.4056143761, 39.5025100708], [-0.4063332081, 39.5027160645], [-0.4074704647, 39.5027313232], [-0.4120722115, 39.5023803711], [-0.4133927822, 39.501865387], [-0.4141116142, 39.5015640259], [-0.4147553444, 39.5014076233], [-0.415699482, 39.5014572144], [-0.4165685177, 39.5017471313], [-0.4174804688, 39.5019226074], [-0.4194111228, 39.5018768311], [-0.4208922386, 39.5017547607], [-0.4215145111, 39.5015907288], [-0.4230380058, 39.5007209778], [-0.424207449, 39.4999427795], [-0.4254194498, 39.4987373352], [-0.4266643524, 39.4974327087], [-0.4283380508, 39.4965896606], [-0.4309988022, 39.4952316284], [-0.4320716858, 39.4950675964], [-0.435323, 39.4958457947], [-0.4419719875, 39.4988098145], [-0.4460513592, 39.5005455017], [-0.4493021965, 39.5020294189], [-0.4551055431, 39.505657196], [-0.4645166695, 39.5111732483], [-0.4714250565, 39.5195350647], [-0.4871222079, 39.5268058777], [-0.4900074005, 39.5306434631], [-0.4916381836, 39.5328598022], [-0.4934942722, 39.5346565247], [-0.4979777634, 39.5378417969], [-0.5084609985, 39.5440292358], [-0.5100917816, 39.5441627502], [-0.5139539838, 39.5433349609], [-0.5179023743, 39.5425071716], [-0.5215072632, 39.5429039001], [-0.523481369, 39.5443611145], [-0.5279861093, 39.5498657227], [-0.5316972136, 39.5555725098], [-0.5335879326, 39.5575141907], [-0.5347681046, 39.55884552], [-0.5359194279, 39.561832428], [-0.536699295, 39.5629730225], [-0.5419166684, 39.5686645508], [-0.5460548401, 39.5722846985], [-0.5622777939, 39.5827636719], [-0.5780805349, 39.5927238464], [-0.5839277506, 39.5988807678], [-0.5881977081, 39.6020507812], [-0.595407486, 39.6091270447], [-0.5952358246, 39.6152114868], [-0.590277791, 39.6228408813]]}, "properties": {"line": 2, "line_name": "Llíria", "type": "metro", "color": "#CE142B", "route_id": "V2-107-54", "direction": "Llíria → Torrent Avinguda", "stops": ["Torrent Avinguda", "Torrent", "Picanya", "Paiporta", "València Sud", "Sant Isidre", "Safranar", "Patraix", "Jesús", "Pl. Espanya", "Àngel Guimerà", "Túria", "Campanar", "Beniferri", "Empalme", "Cantereria", "Benimàmet", "Les Carolines - Fira", "Campament", "Paterna", "Santa Rita", "Fuente del Jarro", "Font del Barranc", "La Canyada", "La Vallesa", "Entrepins", "El Clot", "Montesol", "L'Eliana", "Gallipont - Torre del Virrei", "La Pobla de Vallbona", "Fondo de Benaguasil", "Benaguasil", "Llíria"]}}, {"type": "Feature", "geometry": {"type": "LineString", "coordinates": [[-0.3310583234, 39.5885238647], [-0.3304361105, 39.5794181824], [-0.3301477432, 39.576675415], [-0.3301048279, 39.5752639771], [-0.3330333233, 39.5705604553], [-0.33598423, 39.565700531], [-0.3408555686, 39.5615768433], [-0.3421103954, 39.5604705811], [-0.3432261944, 39.5592460632], [-0.3472280502, 39.5469093323], [-0.3482888937, 39.5452651978], [-0.3492504358, 39.5436325073], [-0.3538694382, 39.5372238159], [-0.3546524048, 39.5356559753], [-0.3548240662, 39.5342674255], [-0.3547167778, 39.5332489014], [-0.3544378281, 39.532875061], [-0.3518194556, 39.5280303955], [-0.3499317169, 39.5247001648], [-0.3498029709, 39.5237388611], [-0.3499317169, 39.5228118896], [-0.3531503677, 39.516620636], [-0.3540945053, 39.5145683289], [-0.3542666733, 39.5122566223], [-0.353949666, 39.5097846985], [-0.3536224365, 39.5051994324], [-0.352327764, 39.5007629395], [-0.3521633148, 39.4993400574], [-0.3521203995, 39.4989738464], [-0.3524637222, 39.4979476929], [-0.3533649445, 39.4968223572], [-0.3541964293, 39.496181488], [-0.3552222252, 39.4956626892], [-0.356913507, 39.4947738647], [-0.358171463, 39.4937400818], [-0.3587944508, 39.4924316406], [-0.3623333275, 39.4848518372], [-0.3630638123, 39.4838409424], [-0.3597164154, 39.4810905457], [-0.360660553, 39.4803924561], [-0.361905545, 39.4780044556], [-0.3639221191, 39.4738998413], [-0.3653166592, 39.4731559753], [-0.3687286377, 39.4718132019], [-0.3709277809, 39.4701461792], [-0.3749513626, 39.4669761658], [-0.3773750067, 39.4671859741], [-0.3801441193, 39.4680709839], [-0.3819036484, 39.4689331055], [-0.3835344315, 39.4701576233], [-0.3850361109, 39.4703025818], [-0.3952932358, 39.4681053162], [-0.397574991, 39.4682197571], [-0.4076305628, 39.4706573486], [-0.418305546, 39.4738235474], [-0.4243694544, 39.4760093689], [-0.4331833422, 39.4776191711], [-0.441880554, 39.481086731], [-0.4505681992, 39.4848327637], [-0.4590654373, 39.4895896912], [-0.4672361016, 39.4926490784], [-0.4749194384, 39.4923667908]]}, "properties": {"line": 3, "line_name": "Aeroport", "type": "metro", "color": "#DD052C", "route_id": "V3-64-182", "direction": "Aeroport → Rafelbunyol", "stops": ["Rafelbunyol", "La Pobla de Farnals", "Massamagrell", "Museros", "Albalat dels Sorells", "Foios", "Meliana", "Almàssera", "Alboraia Peris Aragó", "Alboraia Palmaret", "Machado", "Benimaclet", "Facultats - Manuel Broseta", "Alameda", "Colón", "Xàtiva", "Àngel Guimerà", "Av. del Cid", "Nou d'Octubre", "Mislata", "Mislata Almassil", "Faitanar", "Quart de Poblet", "Salt de l'Aigua", "Manises", "Roses", "Aeroport"]}}, {"type": "Feature", "geometry": {"type": "LineString", "coordinates": [[-0.4749194384, 39.4923667908], [-0.4672361016, 39.4926490784], [-0.4590654373, 39.4895896912], [-0.4505681992, 39.4848327637], [-0.441880554, 39.481086731], [-0.4331833422, 39.4776191711], [-0.4243694544, 39.4760093689], [-0.418305546, 39.4738235474], [-0.4076305628, 39.4706573486], [-0.397574991, 39.4682197571], [-0.3952932358, 39.4679946899], [-0.3850361109, 39.4703025818], [-0.3835344315, 39.4700584412], [-0.3801333904, 39.4679870605], [-0.3773750067, 39.4671859741], [-0.3749406338, 39.4668693542], [-0.3709277809, 39.4701461792], [-0.3687286377, 39.4717063904], [-0.3653166592, 39.4731559753], [-0.3639221191, 39.4737930298], [-0.361905545, 39.4780044556], [-0.360660553, 39.4802856445], [-0.3597056866, 39.4809837341], [-0.3630638123, 39.4837875366], [-0.3623333275, 39.4848518372], [-0.3587944508, 39.4924316406], [-0.3581687808, 39.4937133789], [-0.3569108248, 39.4948043823], [-0.3552222252, 39.4956626892], [-0.3542017937, 39.4962348938], [-0.3533649445, 39.4967727661], [-0.3525924683, 39.4977531433], [-0.3521203995, 39.4990310669], [-0.352327764, 39.5007629395], [-0.3530699015, 39.5031852722], [-0.3536975384, 39.5053024292], [-0.353949666, 39.5098457336], [-0.3542666733, 39.5122566223], [-0.3541642427, 39.5142440796], [-0.3531503677, 39.5166778564], [-0.3520613909, 39.5186882019], [-0.3506398201, 39.5212974548], [-0.349829793, 39.5232276917], [-0.3498405218, 39.5242767334], [-0.3499317169, 39.524646759], [-0.3505647182, 39.5258369446], [-0.3518194556, 39.5280303955], [-0.3524369001, 39.5292205811], [-0.3536438942, 39.5313453674], [-0.3547167778, 39.5333061218], [-0.3548133373, 39.5349998474], [-0.3546416759, 39.5356025696], [-0.3538694382, 39.5372238159], [-0.3492504358, 39.5436897278], [-0.3482888937, 39.5452651978], [-0.34727633, 39.5467338562], [-0.3461498022, 39.550075531], [-0.3450661898, 39.5537033081], [-0.3441274166, 39.556552887], [-0.3432261944, 39.5593032837], [-0.3421103954, 39.5605239868], [-0.3408555686, 39.5615768433], [-0.3388649225, 39.563293457], [-0.3362953663, 39.5654907227], [-0.3359788656, 39.5656509399], [-0.3352493048, 39.5667572021], [-0.3330333233, 39.5705604553], [-0.3304105997, 39.5746383667], [-0.3301048279, 39.575214386], [-0.33013165, 39.5764846802], [-0.3304361105, 39.5794181824], [-0.3310583234, 39.5885238647]]}, "properties": {"line": 3, "line_name": "Rafelbunyol", "type": "metro", "color": "#DD052C", "route_id": "V3-182-64", "direction": "Rafelbunyol → Aeroport", "stops": ["Aeroport", "Roses", "Manises", "Salt de l'Aigua", "Quart de Poblet", "Faitanar", "Mislata Almassil", "Mislata", "Nou d'Octubre", "Av. del Cid", "Àngel Guimerà", "Xàtiva", "Colón", "Alameda", "Facultats - Manuel Broseta", "Benimaclet", "Machado", "Alboraia Palmaret", "Alboraia Peris Aragó", "Almàssera", "Meliana", "Foios", "Albalat dels Sorells", "Museros", "Massamagrell", "La Pobla de Farnals", "Rafelbunyol"]}}, {"type": "Feature", "geometry": {"type": "LineString", "coordinates": [[-0.4749194384, 39.4923667908], [-0.4672361016, 39.4926490784], [-0.4590654373, 39.4895896912], [-0.4505681992, 39.4848327637], [-0.441880554, 39.481086731], [-0.4331833422, 39.4776191711], [-0.4243694544, 39.4760093689], [-0.418305546, 39.4738235474], [-0.4076305628, 39.4706573486], [-0.397574991, 39.4682197571], [-0.3954434395, 39.4680633545], [-0.3858947754, 39.4701118469], [-0.3850361109, 39.4703025818], [-0.3835988045, 39.4701652527], [-0.3818714619, 39.4689407349], [-0.3803157806, 39.4681472778], [-0.3773750067, 39.4671859741], [-0.3751659393, 39.4670257568], [-0.3748440742, 39.4671020508], [-0.3709277809, 39.4701461792], [-0.3685998917, 39.4719810486], [-0.3653166592, 39.4731559753], [-0.3581166565, 39.4726257324], [-0.3503944576, 39.4703330994], [-0.3429694474, 39.4664268494], [-0.3382369876, 39.4649391174]]}, "properties": {"line": 5, "line_name": "Aeroport", "type": "metro", "color": "#8884BF", "route_id": "V5-123-182", "direction": "Aeroport → Marítim", "stops": ["Marítim", "Ayora", "Amistat", "Aragó", "Alameda", "Colón", "Xàtiva", "Àngel Guimerà", "Av. del Cid", "Nou d'Octubre", "Mislata", "Mislata Almassil", "Faitanar", "Quart de Poblet", "Salt de l'Aigua", "Manises", "Roses", "Aeroport"]}}, {"type": "Feature", "geometry": {"type": "LineString", "coordinates": [[-0.3382369876, 39.4649391174], [-0.3429694474, 39.4664268494], [-0.3503944576, 39.4703330994], [-0.3581166565, 39.4726257324], [-0.3653166592, 39.4731559753], [-0.36870718, 39.4718475342], [-0.3709277809, 39.4701461792], [-0.3748226166, 39.4670944214], [-0.3751659393, 39.467010498], [-0.3773750067, 39.4671859741], [-0.3803157806, 39.4681358337], [-0.381860733, 39.4689331055], [-0.3835988045, 39.4701766968], [-0.3850361109, 39.4703025818], [-0.3858304024, 39.470123291], [-0.3954434395, 39.4680557251], [-0.397574991, 39.4682197571], [-0.4076305628, 39.4706573486], [-0.418305546, 39.4738235474], [-0.4243694544, 39.4760093689], [-0.4331833422, 39.4776191711], [-0.441880554, 39.481086731], [-0.4505681992, 39.4848327637], [-0.4590654373, 39.4895896912], [-0.4672361016, 39.4926490784], [-0.4749194384, 39.4923667908]]}, "properties": {"line": 5, "line_name": "Marítim", "type": "metro", "color": "#8884BF", "route_id": "V5-182-123", "direction": "Marítim → Aeroport", "stops": ["Aeroport", "Roses", "Manises", "Salt de l'Aigua", "Quart de Poblet", "Faitanar", "Mislata Almassil", "Mislata", "Nou d'Octubre", "Av. del Cid", "Àngel Guimerà", "Xàtiva", "Colón", "Alameda", "Aragó", "Amistat", "Ayora", "Marítim"]}}, {"type": "Feature", "geometry": {"type": "LineString", "coordinates": [[-0.3382369876, 39.4649391174], [-0.3429694474, 39.4664268494], [-0.3503944576, 39.4703330994], [-0.3581166565, 39.4726257324], [-0.3653166592, 39.4731559753], [-0.36870718, 39.4718475342], [-0.3709277809, 39.4701461792], [-0.3748226166, 39.4670944214], [-0.3751659393, 39.467010498], [-0.3758525848, 39.4670944214], [-0.3767323494, 39.4669876099], [-0.3772687912, 39.4668197632], [-0.377805233, 39.4665565491], [-0.3782343864, 39.4661064148], [-0.3794222176, 39.4639778137], [-0.3800582886, 39.4617996216], [-0.3807449341, 39.4610710144], [-0.3815603256, 39.4605751038], [-0.3826761246, 39.4600791931], [-0.3845416605, 39.4592018127], [-0.3859591484, 39.4585533142], [-0.3868818283, 39.4575767517], [-0.3875041008, 39.4568634033], [-0.3880190849, 39.4566307068], [-0.3887271881, 39.4565162659], [-0.3905083239, 39.456451416], [-0.3946280479, 39.4562339783], [-0.3956580162, 39.456111908], [-0.3965914249, 39.4556808472], [-0.3969025612, 39.4555969238], [-0.3983833194, 39.4545707703], [-0.4028027654, 39.4510345459], [-0.4106472135, 39.4408111572], [-0.4136878252, 39.4368858337], [-0.414943099, 39.4352073669], [-0.4154151678, 39.4345741272], [-0.41631639, 39.4334220886], [-0.4167187214, 39.4330101013], [-0.4172068834, 39.4326438904], [-0.4180611074, 39.4322624207], [-0.4233384132, 39.4305267334], [-0.4252266884, 39.4306411743], [-0.4371583462, 39.4331207275], [-0.4576331377, 39.4373664856], [-0.4581212997, 39.4374046326], [-0.4586362839, 39.4373855591], [-0.4590815306, 39.4373474121], [-0.4596716166, 39.4371681213], [-0.4601275921, 39.4369239807], [-0.4606050253, 39.4364242554], [-0.4608732462, 39.4355392456], [-0.4609861076, 39.4346466064], [-0.4608947039, 39.4330291748], [-0.4609644413, 39.4295387268], [-0.4612004757, 39.4271621704], [-0.4615545273, 39.4266548157], [-0.4623270035, 39.4261398315], [-0.4632604122, 39.4257926941], [-0.4642689228, 39.4257926941], [-0.4656422138, 39.4260101318], [-0.4669189453, 39.4268455505], [-0.4699015617, 39.4293327332], [-0.4728333354, 39.4318122864]]}, "properties": {"line": 7, "line_name": "Torrent Avinguda", "type": "metro", "color": "#82CEE6", "route_id": "V7-123-107", "direction": "Torrent Avinguda → Marítim", "stops": ["Marítim", "Ayora", "Amistat", "Aragó", "Alameda", "Colón", "Bailén", "Jesús", "Patraix", "Safranar", "Sant Isidre", "València Sud", "Paiporta", "Picanya", "Torrent", "Torrent Avinguda"]}}, {"type": "Feature", "geometry": {"type": "LineString", "coordinates": [[-0.4728333354, 39.4318122864], [-0.4668974876, 39.4268302917], [-0.465631485, 39.4259986877], [-0.464258194, 39.4257926941], [-0.4631102085, 39.4258346558], [-0.4623377323, 39.4261398315], [-0.4614043236, 39.4268035889], [-0.4610931873, 39.4273757935], [-0.4609429836, 39.4307250977], [-0.4608947039, 39.4333152771], [-0.4608786106, 39.4341392517], [-0.4609861076, 39.4346466064], [-0.4608517885, 39.4357299805], [-0.460588932, 39.4364776611], [-0.4601275921, 39.4369239807], [-0.4596662521, 39.4371757507], [-0.4590815306, 39.4373512268], [-0.4586362839, 39.4374084473], [-0.4581212997, 39.4374084473], [-0.4576438665, 39.4373703003], [-0.4563188553, 39.4371070862], [-0.4535132647, 39.4365158081], [-0.451399684, 39.4360733032], [-0.4478698969, 39.4353408813], [-0.4451018572, 39.4347610474], [-0.4417222738, 39.4340400696], [-0.4396408796, 39.4336128235], [-0.4371583462, 39.4331207275], [-0.4249423742, 39.4305610657], [-0.4232794046, 39.4305381775], [-0.422244072, 39.4307594299], [-0.4212892056, 39.4311332703], [-0.4195672274, 39.4317970276], [-0.4180611074, 39.4322624207], [-0.4170942307, 39.4327163696], [-0.4164773226, 39.4332466125], [-0.4159033298, 39.4339256287], [-0.4145139456, 39.4357147217], [-0.4134249687, 39.4372367859], [-0.4106472135, 39.4408111572], [-0.4028027654, 39.4510345459], [-0.3983833194, 39.4545707703], [-0.3968918324, 39.4556121826], [-0.3956580162, 39.456111908], [-0.3918814659, 39.4563751221], [-0.3905083239, 39.456451416], [-0.3888130188, 39.4565162659], [-0.3880190849, 39.4566497803], [-0.3875148296, 39.4568710327], [-0.3868925571, 39.4575767517], [-0.3860664368, 39.4584121704], [-0.3845416605, 39.4592018127], [-0.3816354275, 39.4605178833], [-0.3807449341, 39.4610557556], [-0.3800690174, 39.4617996216], [-0.3794222176, 39.4639778137], [-0.3782343864, 39.4661064148], [-0.377805233, 39.4665489197], [-0.3772580624, 39.4668273926], [-0.3767323494, 39.4669685364], [-0.3758525848, 39.4670944214], [-0.3751444817, 39.4670257568], [-0.3748333454, 39.4670944214], [-0.3709277809, 39.4701461792], [-0.36870718, 39.4718322754], [-0.3653166592, 39.4731559753], [-0.3581166565, 39.4726257324], [-0.3503944576, 39.4703330994], [-0.3429694474, 39.4664268494], [-0.3382369876, 39.4649391174]]}, "properties": {"line": 7, "line_name": "Marítim", "type": "metro", "color": "#82CEE6", "route_id": "V7-107-123", "direction": "Marítim → Torrent Avinguda", "stops": ["Torrent Avinguda", "Torrent", "Picanya", "Paiporta", "València Sud", "Sant Isidre", "Safranar", "Patraix", "Jesús", "Bailén", "Colón", "Alameda", "Aragó", "Amistat", "Ayora", "Marítim"]}}, {"type": "Feature", "geometry": {"type": "LineString", "coordinates": [[-0.352327764, 39.5007629395], [-0.3521633148, 39.4993400574], [-0.3521203995, 39.4989738464], [-0.3524637222, 39.4979476929], [-0.3533649445, 39.4968223572], [-0.3541964293, 39.496181488], [-0.3552222252, 39.4956626892], [-0.356913507, 39.4947738647], [-0.358171463, 39.4937400818], [-0.3587944508, 39.4924316406], [-0.3623333275, 39.4848518372], [-0.3630638123, 39.4838409424], [-0.3597164154, 39.4810905457], [-0.360660553, 39.4803924561], [-0.361905545, 39.4780044556], [-0.3639221191, 39.4738998413], [-0.3653166592, 39.4731559753], [-0.3687286377, 39.4718132019], [-0.3709277809, 39.4701461792], [-0.3749513626, 39.4669761658], [-0.3773750067, 39.4671859741], [-0.3801441193, 39.4680709839], [-0.3819036484, 39.4689331055], [-0.3835344315, 39.4701576233], [-0.3850361109, 39.4703025818], [-0.3952932358, 39.4681053162], [-0.397574991, 39.4682197571], [-0.4076305628, 39.4706573486], [-0.418305546, 39.4738235474], [-0.4243694544, 39.4760093689], [-0.4331833422, 39.4776191711], [-0.441880554, 39.481086731], [-0.4505681992, 39.4848327637], [-0.4590654373, 39.4895896912], [-0.4672361016, 39.4926490784], [-0.4844444394, 39.4988899231], [-0.5158333182, 39.5172233582], [-0.5466666818, 39.5380554199], [-0.5594444275, 39.5433349609]]}, "properties": {"line": 9, "line_name": "Riba-roja de Túria", "type": "metro", "color": "#B7DD79", "route_id": "V9-56-186", "direction": "Riba-roja de Túria → Alboraia Peris Aragó", "stops": ["Alboraia Peris Aragó", "Alboraia Palmaret", "Machado", "Benimaclet", "Facultats - Manuel Broseta", "Alameda", "Colón", "Xàtiva", "Àngel Guimerà", "Av. del Cid", "Nou d'Octubre", "Mislata", "Mislata Almassil", "Faitanar", "Quart de Poblet", "Salt de l'Aigua", "Manises", "Roses", "La Cova", "La Presa", "València la Vella", "Masia de Traver", "Riba-roja de Túria"]}}, {"type": "Feature", "geometry": {"type": "LineString", "coordinates": [[-0.5594444275, 39.5433349609], [-0.5466666818, 39.5380554199], [-0.5158333182, 39.5172233582], [-0.4844444394, 39.4988899231], [-0.4672361016, 39.4926490784], [-0.4590654373, 39.4895896912], [-0.4505681992, 39.4848327637], [-0.441880554, 39.481086731], [-0.4331833422, 39.4776191711], [-0.4243694544, 39.4760093689], [-0.418305546, 39.4738235474], [-0.4076305628, 39.4706573486], [-0.397574991, 39.4682197571], [-0.3952932358, 39.4679946899], [-0.3850361109, 39.4703025818], [-0.3835344315, 39.4700584412], [-0.3801333904, 39.4679870605], [-0.3773750067, 39.4671859741], [-0.3749406338, 39.4668693542], [-0.3709277809, 39.4701461792], [-0.3687286377, 39.4717063904], [-0.3653166592, 39.4731559753], [-0.3639221191, 39.4737930298], [-0.361905545, 39.4780044556], [-0.360660553, 39.4802856445], [-0.3597056866, 39.4809837341], [-0.3630638123, 39.4837875366], [-0.3623333275, 39.4848518372], [-0.3587944508, 39.4924316406], [-0.3581687808, 39.4937133789], [-0.3569108248, 39.4948043823], [-0.3552222252, 39.4956626892], [-0.3542017937, 39.4962348938], [-0.3533649445, 39.4967727661], [-0.3525924683, 39.4977531433], [-0.3521203995, 39.4990310669], [-0.352327764, 39.5007629395]]}, "properties": {"line": 9, "line_name": "Alboraia Peris Aragó", "type": "metro", "color": "#B7DD79", "route_id": "V9-186-56", "direction": "Alboraia Peris Aragó → Riba-roja de Túria", "stops": ["Riba-roja de Túria", "Masia de Traver", "València la Vella", "La Presa", "La Cova", "Roses", "Manises", "Salt de l'Aigua", "Quart de Poblet", "Faitanar", "Mislata Almassil", "Mislata", "Nou d'Octubre", "Av. del Cid", "Àngel Guimerà", "Xàtiva", "Colón", "Alameda", "Facultats - Manuel Broseta", "Benimaclet", "Machado", "Alboraia Palmaret", "Alboraia Peris Aragó"]}}, {"type": "Feature", "geometry": {"type": "LineString", "coordinates": [[-0.3281527758, 39.4693069458], [-0.3275833428, 39.4728546143], [-0.3293749988, 39.4752044678], [-0.3342027664, 39.4765930176], [-0.3396222293, 39.47813797], [-0.3448249996, 39.4796600342], [-0.3504999876, 39.4813156128], [-0.3579472303, 39.4833717346], [-0.3623333275, 39.4848518372], [-0.3677638769, 39.4862709045], [-0.3731805682, 39.4817810059], [-0.3749722242, 39.4864997864], [-0.3817070127, 39.4859657288], [-0.3838368952, 39.4879722595], [-0.387258321, 39.4895629883], [-0.3909277916, 39.4900283813], [-0.3945111036, 39.4922904968], [-0.3968166709, 39.4944343567], [-0.4001416564, 39.4971809387], [-0.4021083415, 39.4995765686], [-0.4124779999, 39.504032135], [-0.4163239896, 39.5052909851], [-0.4174583256, 39.5072212219], [-0.4198839962, 39.5085601807], [-0.424748987, 39.5122032166], [-0.4304472208, 39.5098991394]]}, "properties": {"line": 4, "line_name": "Dr. Lluch", "type": "metro", "color": "#F28D01", "route_id": "V4-114-98", "direction": "Dr. Lluch → Mas del Rosari", "stops": ["Mas del Rosari", "La Coma", "Tomás y Valiente", "Parc Científic", "À Punt", "Vicent Andrés Estellés", "Campus", "Sant Joan", "La Granja", "Empalme", "Palau de Congressos", "Florista", "Garbí", "Benicalap", "Trànsits", "Marxalenes", "Reus", "Sagunt", "Pont de Fusta", "Trinitat", "Benimaclet", "Vicente Zaragozá", "Universitat Politècnica", "La Carrasca", "Tarongers - Ernest Lluch", "Beteró", "La Cadena", "Platja Malva-rosa", "Platja les Arenes", "Dr. Lluch"]}}, {"type": "Feature", "geometry": {"type": "LineString", "coordinates": [[-0.4304472208, 39.5098991394], [-0.424748987, 39.5122032166], [-0.4198839962, 39.5085601807], [-0.4174583256, 39.5072212219], [-0.4163239896, 39.5052909851], [-0.4124779999, 39.504032135], [-0.4021083415, 39.4995765686], [-0.4001416564, 39.4971809387], [-0.3968166709, 39.4944343567], [-0.3945111036, 39.4922904968], [-0.3909277916, 39.4900283813], [-0.387258321, 39.4895629883], [-0.3838368952, 39.4879722595], [-0.3817070127, 39.4859657288], [-0.3749722242, 39.4864997864], [-0.3731805682, 39.4817810059], [-0.3677638769, 39.4862709045], [-0.3623333275, 39.4848518372], [-0.3579472303, 39.4833717346], [-0.3504999876, 39.4813156128], [-0.3448249996, 39.4796600342], [-0.3396222293, 39.47813797], [-0.3342027664, 39.4765930176], [-0.3293749988, 39.4752044678], [-0.3257277906, 39.473690033], [-0.3257277906, 39.4689292908], [-0.3281527758, 39.4693069458], [-0.3275833428, 39.4728546143]]}, "properties": {"line": 4, "line_name": "Mas del Rosari", "type": "metro", "color": "#F28D01", "route_id": "V4-98-114", "direction": "Mas del Rosari → Dr. Lluch", "stops": ["Dr. Lluch", "Cabanyal", "La Cadena", "Beteró", "Tarongers - Ernest Lluch", "La Carrasca", "Universitat Politècnica", "Vicente Zaragozá", "Benimaclet", "Trinitat", "Pont de Fusta", "Sagunt", "Reus", "Marxalenes", "Trànsits", "Benicalap", "Garbí", "Florista", "Palau de Congressos", "Empalme", "La Granja", "Sant Joan", "Campus", "Vicent Andrés Estellés", "À Punt", "Parc Científic", "Tomás y Valiente", "La Coma", "Mas del Rosari"]}}, {"type": "Feature", "geometry": {"type": "LineString", "coordinates": [[-0.3725369871, 39.4959526062], [-0.3722342849, 39.4964179993], [-0.3718614578, 39.4973907471], [-0.3716522455, 39.4978561401], [-0.3715503216, 39.4979667664], [-0.3714537621, 39.4980278015], [-0.3712981939, 39.4980430603], [-0.3700053692, 39.4977073669], [-0.3684949875, 39.4972190857], [-0.3679078817, 39.4970664978], [-0.3669261932, 39.4967689514], [-0.3658184409, 39.4965438843], [-0.36531955, 39.4964179993], [-0.3644317389, 39.4961585999], [-0.3642976284, 39.4961090088], [-0.364227891, 39.4960441589], [-0.3641957045, 39.4959869385], [-0.3641876578, 39.4959259033], [-0.3642171621, 39.4958381653], [-0.36465168, 39.4954681396], [-0.3655419946, 39.4949188232], [-0.365858674, 39.4945068359], [-0.3672373295, 39.4934005737], [-0.3676636219, 39.4931488037], [-0.3677818179, 39.4929695129], [-0.3679507971, 39.492816925], [-0.3679829836, 39.4927253723], [-0.3679856658, 39.4926567078], [-0.3679132462, 39.4925422668], [-0.3676825762, 39.4923782349], [-0.3673258424, 39.4921112061], [-0.3668162227, 39.4917449951], [-0.3652364016, 39.4905471802], [-0.3648930788, 39.4901733398], [-0.3660329878, 39.4892997742], [-0.3678542376, 39.4883575439], [-0.3686401248, 39.4878578186], [-0.3693857789, 39.4872589111], [-0.3695225716, 39.4871253967], [-0.3695467114, 39.4870033264], [-0.3694286942, 39.4868202209], [-0.3682458401, 39.4864883423], [-0.3677638769, 39.4862709045], [-0.3623333275, 39.4848518372], [-0.3589332104, 39.4838027954], [-0.3579472303, 39.4833717346], [-0.3553014994, 39.4827270508], [-0.3523188829, 39.4817314148], [-0.351691246, 39.4811248779], [-0.3504999876, 39.4813156128], [-0.3448249996, 39.4796600342], [-0.3396222293, 39.47813797], [-0.3342027664, 39.4765930176], [-0.3293749988, 39.4752044678], [-0.3273528814, 39.4746551514], [-0.3258669376, 39.4745407104], [-0.32561481, 39.4742660522], [-0.3257277906, 39.473690033], [-0.3257277906, 39.4689292908], [-0.325679183, 39.4680175781], [-0.3255933523, 39.4676246643], [-0.3257918358, 39.4674530029], [-0.3279320002, 39.4665222168], [-0.327476263, 39.4670677185], [-0.3280556202, 39.4660186768], [-0.3279268742, 39.4646186829], [-0.3280878067, 39.4635925293], [-0.32900244, 39.4635124207], [-0.3293162584, 39.4635162354], [-0.3294720054, 39.4631004333], [-0.3302443027, 39.4630088806], [-0.3304508328, 39.4629211426], [-0.3314056993, 39.4629554749], [-0.3339729905, 39.4632453918], [-0.334828198, 39.4633903503], [-0.3355711699, 39.4635353088], [-0.3361719847, 39.4636154175], [-0.3363758326, 39.4636611938], [-0.3364133835, 39.4641418457], [-0.3382369876, 39.4649391174]]}, "properties": {"line": 6, "line_name": "Tossal del Rei", "type": "metro", "color": "#F28D01", "route_id": "V6-123-132", "direction": "Tossal del Rei → Marítim", "stops": ["Marítim", "Francesc Cubells", "Grau - La Marina", "Canyamelar", "Dr. Lluch", "Cabanyal", "La Cadena", "Beteró", "Tarongers - Ernest Lluch", "La Carrasca", "Universitat Politècnica", "Vicente Zaragozá", "Benimaclet", "Trinitat", "Alfauir", "Orriols", "Estadi Ciutat de València", "Sant Miquel dels Reis", "Tossal del Rei"]}}, {"type": "Feature", "geometry": {"type": "LineString", "coordinates": [[-0.3382369876, 39.4649391174], [-0.3364831209, 39.4641685486], [-0.3364080191, 39.4640693665], [-0.3363972902, 39.4638595581], [-0.3363758326, 39.4636611938], [-0.3361666203, 39.4636039734], [-0.3356570005, 39.4635391235], [-0.3348255157, 39.4633789062], [-0.3339729905, 39.4632453918], [-0.3316926956, 39.4629707336], [-0.330670774, 39.4629249573], [-0.3303274512, 39.4629631042], [-0.3294720054, 39.4631004333], [-0.3290104866, 39.4635353088], [-0.3280824423, 39.4635620117], [-0.3279215097, 39.4645462036], [-0.3279912472, 39.4663124084], [-0.3279320002, 39.4665222168], [-0.3279912472, 39.4676475525], [-0.3282111883, 39.4679031372], [-0.3281527758, 39.4693069458], [-0.3275833428, 39.4728546143], [-0.3273260593, 39.4741287231], [-0.3273046017, 39.4744873047], [-0.3276211023, 39.4747314453], [-0.3293749988, 39.4752044678], [-0.3342027664, 39.4765930176], [-0.3396222293, 39.47813797], [-0.3448249996, 39.4796600342], [-0.3504999876, 39.4813156128], [-0.3509616852, 39.4810028076], [-0.3514659405, 39.4809379578], [-0.351921916, 39.4810943604], [-0.3521472216, 39.481426239], [-0.3522706032, 39.4816436768], [-0.352576375, 39.481803894], [-0.3533005714, 39.4820518494], [-0.3579472303, 39.4833717346], [-0.3589949012, 39.4838218689], [-0.3623333275, 39.4848518372], [-0.3677638769, 39.4862709045], [-0.3694903851, 39.4868888855], [-0.3695118427, 39.4871444702], [-0.369130969, 39.4874649048], [-0.367923975, 39.4882965088], [-0.3660329878, 39.4892997742], [-0.3649091721, 39.4900741577], [-0.3649252653, 39.4902763367], [-0.365177393, 39.4905166626], [-0.3656548262, 39.4908485413], [-0.3666687012, 39.4916229248], [-0.3674733639, 39.4922447205], [-0.3679186106, 39.492477417], [-0.3679561615, 39.4927635193], [-0.3677791357, 39.4929199219], [-0.3676636219, 39.4931488037], [-0.3662931919, 39.4941482544], [-0.3655419946, 39.4949188232], [-0.3641796112, 39.4958839417], [-0.364292264, 39.4960594177], [-0.3644317389, 39.4961166382], [-0.3653168678, 39.4963798523], [-0.3658157587, 39.4964981079], [-0.3669208288, 39.4967308044], [-0.3684949875, 39.4972190857], [-0.3700697422, 39.4977264404], [-0.3712981939, 39.4979972839], [-0.3714537621, 39.4979782104], [-0.3715610504, 39.49792099], [-0.3716522455, 39.4978065491], [-0.371850729, 39.4972839355], [-0.3722369671, 39.496307373], [-0.3725369871, 39.4959526062]]}, "properties": {"line": 6, "line_name": "Marítim", "type": "metro", "color": "#F28D01", "route_id": "V6-132-123", "direction": "Marítim → Tossal del Rei", "stops": ["Tossal del Rei", "Sant Miquel dels Reis", "Estadi Ciutat de València", "Orriols", "Alfauir", "Trinitat", "Benimaclet", "Vicente Zaragozá", "Universitat Politècnica", "La Carrasca", "Tarongers - Ernest Lluch", "Beteró", "La Cadena", "Platja Malva-rosa", "Platja les Arenes", "Canyamelar", "Grau - La Marina", "Francesc Cubells", "Marítim"]}}, {"type": "Feature", "geometry": {"type": "LineString", "coordinates": [[-0.3382369876, 39.4649391174], [-0.3339729905, 39.4632453918], [-0.3294720054, 39.4631004333], [-0.3258508444, 39.4632530212]]}, "properties": {"line": 8, "line_name": "Marítim", "type": "metro", "color": "#82CEE6", "route_id": "V8-95-123", "direction": "Marítim → La Cadena", "stops": ["La Cadena", "Platja Malva-rosa", "Platja les Arenes", "Canyamelar", "Grau - La Marina", "Francesc Cubells", "Marítim"]}}, {"type": "Feature", "geometry": {"type": "LineString", "coordinates": [[-0.3258508444, 39.4632530212], [-0.3294720054, 39.4631004333], [-0.3339729905, 39.4632453918], [-0.3382369876, 39.4649391174]]}, "properties": {"line": 8, "line_name": "Dr. Lluch", "type": "metro", "color": "#82CEE6", "route_id": "V8-123-98", "direction": "Dr. Lluch → Marítim", "stops": ["Marítim", "Francesc Cubells", "Grau - La Marina", "Canyamelar", "Dr. Lluch"]}}, {"type": "Feature", "geometry": {"type": "LineString", "coordinates": [[-0.3346740007, 39.4498901367], [-0.3384079933, 39.4501495361], [-0.3473420143, 39.4520378113], [-0.3532159925, 39.4525909424], [-0.3601250052, 39.4524459839], [-0.3651100099, 39.4593734741], [-0.3695310056, 39.4639129639], [-0.3774769902, 39.4647216797]]}, "properties": {"line": 10, "line_name": "Natzaret", "type": "metro", "color": "#B7DD79", "route_id": "V10-190-197", "direction": "Natzaret → Alacant", "stops": ["Alacant", "Russafa", "Amado Granell - Montolivet", "Quatre Carreres", "Ciutat Arts i Ciències - Justícia", "Oceanogràfic", "Moreres", "Natzaret"]}}, {"type": "Feature", "geometry": {"type": "LineString", "coordinates": [[-0.3774769902, 39.4647216797], [-0.3695310056, 39.4639129639], [-0.3651100099, 39.4593734741], [-0.3601250052, 39.4524459839], [-0.3532159925, 39.4525909424], [-0.3473420143, 39.4520378113], [-0.3384079933, 39.4501495361], [-0.3346740007, 39.4498901367]]}, "properties": {"line": 10, "line_name": "Alacant", "type": "metro", "color": "#B7DD79", "route_id": "V10-197-190", "direction": "Alacant → Natzaret", "stops": ["Natzaret", "Moreres", "Oceanogràfic", "Ciutat Arts i Ciències - Justícia", "Quatre Carreres", "Amado Granell - Montolivet", "Russafa", "Alacant"]}}]}