{"type": "FeatureCollection", "features": [{"type": "Feature", "geometry": {"type": "LineString", "coordinates": [[-0.0523456, 39.9884736], [-0.0967681, 39.9330935], [-0.271542, 39.6758025], [-0.3346772, 39.4702456], [-0.3772239, 39.4669305]]}, "properties": {"line": "C6", "line_name": "Cercanías C6", "type": "rail", "color": "#E30613", "stops": ["Castelló de la Plana", "Vila-Real", "Sagunt", "València-Cabanyal", "València-Estació del Nord"]}}, {"type": "Feature", "geometry": {"type": "LineString", "coordinates": [[-0.5866758, 38.9690579], [-0.5245402, 38.992148], [-0.4776036, 39.0500727], [-0.4696592, 39.0833385], [-0.4544102, 39.1205251], [-0.4506011, 39.1531495], [-0.4409196, 39.1931484], [-0.4299537, 39.2843027], [-0.4149813, 39.3619548], [-0.4026343, 39.3918429], [-0.3992195, 39.4000447], [-0.3953073, 39.4091934], [-0.392605, 39.4224232], [-0.3772239, 39.4669305]]}, "properties": {"line": "C2", "line_name": "Cercanías C2", "type": "rail", "color": "#E30613", "stops": ["L'Alcúdia de Crespins", "Xàtiva", "Lenova-Manuel", "La Pobla Llarga", "Carcaixent", "Alzira", "Algemesí", "Benifaió", "Silla", "Albal", "Catarroja", "Massanassa", "Alfafar-Benetússer", "València-Estació del Nord"]}}, {"type": "Feature", "geometry": {"type": "LineString", "coordinates": [[-0.5866758, 38.9690579], [-0.6410905, 38.9429388], [-0.6902385, 38.9089907], [-0.7536507, 38.8777975]]}, "properties": {"line": "C2", "line_name": "Cercanías C2", "type": "rail", "color": "#E30613", "stops": ["L'Alcúdia de Crespins", "Montesa", "Vallada", "Moixent"]}}, {"type": "Feature", "geometry": {"type": "LineString", "coordinates": [[-0.3772239, 39.4669305], [-0.392605, 39.4224232], [-0.3953073, 39.4091934], [-0.3992195, 39.4000447], [-0.4149813, 39.3619548], [-0.4299537, 39.2843027], [-0.4409196, 39.1931484], [-0.4506011, 39.1531495], [-0.4544102, 39.1205251], [-0.4696592, 39.0833385], [-0.4776036, 39.0500727], [-0.5245402, 38.992148]]}, "properties": {"line": "C2", "line_name": "Cercanías C2", "type": "rail", "color": "#E30613", "stops": ["València-Estació del Nord", "Alfafar-Benetússer", "Massanassa", "Catarroja", "Silla", "Benifaió", "Algemesí", "Alzira", "Carcaixent", "La Pobla Llarga", "Lenova-Manuel", "Xàtiva"]}}, {"type": "Feature", "geometry": {"type": "LineString", "coordinates": [[-0.5245402, 38.992148], [-0.5866758, 38.9690579], [-0.6410905, 38.9429388], [-0.6902385, 38.9089907], [-0.7536507, 38.8777975]]}, "properties": {"line": "C2", "line_name": "Cercanías C2", "type": "rail", "color": "#E30613", "stops": ["Xàtiva", "L'Alcúdia de Crespins", "Montesa", "Vallada", "Moixent"]}}, {"type": "Feature", "geometry": {"type": "LineString", "coordinates": [[-0.5866758, 38.9690579], [-0.5245402, 38.992148]]}, "properties": {"line": "C2", "line_name": "Cercanías C2", "type": "rail", "color": "#E30613", "stops": ["L'Alcúdia de Crespins", "Xàtiva"]}}, {"type": "Feature", "geometry": {"type": "LineString", "coordinates": [[-0.1797829, 38.970514], [-0.2150346, 39.0261489], [-0.2262966, 39.0790438], [-0.2632437, 39.1778885], [-0.3082388, 39.2058471], [-0.3793139, 39.2793471], [-0.4149813, 39.3619548], [-0.3992195, 39.4000447], [-0.3953073, 39.4091934], [-0.392605, 39.4224232], [-0.3772239, 39.4669305]]}, "properties": {"line": "C1", "line_name": "Cercanías C1", "type": "rail", "color": "#E30613", "stops": ["Gandia", "Xeraco", "Tavernes de la Valldigna", "Cullera", "Sueca", "Sollana", "Silla", "Catarroja", "Massanassa", "Alfafar-Benetússer", "València-Estació del Nord"]}}, {"type": "Feature", "geometry": {"type": "LineString", "coordinates": [[-0.1624339, 38.9902436], [-0.2150346, 39.0261489], [-0.2262966, 39.0790438], [-0.2632437, 39.1778885], [-0.3082388, 39.2058471], [-0.3793139, 39.2793471], [-0.4149813, 39.3619548], [-0.3992195, 39.4000447], [-0.3953073, 39.4091934], [-0.392605, 39.4224232], [-0.3772239, 39.4669305]]}, "properties": {"line": "C1", "line_name": "Cercanías C1", "type": "rail", "color": "#E30613", "stops": ["Platja i Grau de Gandia", "Xeraco", "Tavernes de la Valldigna", "Cullera", "Sueca", "Sollana", "Silla", "Catarroja", "Massanassa", "Alfafar-Benetússer", "València-Estació del Nord"]}}, {"type": "Feature", "geometry": {"type": "LineString", "coordinates": [[-0.0523456, 39.9884736], [0.0577646, 40.0579451], [0.139861, 40.092258], [0.198779, 40.212211], [0.228717, 40.30469], [0.415217, 40.427639], [0.455727, 40.471682]]}, "properties": {"line": "C6", "line_name": "Cercanías C6", "type": "rail", "color": "#E30613", "stops": ["Castelló de la Plana", "Benicàssim", "Orpesa", "Torreblanca", "Alcalá de Chivert", "Benicarló-Peñíscola", "Vinaròs"]}}, {"type": "Feature", "geometry": {"type": "LineString", "coordinates": [[0.455727, 40.471682], [0.415217, 40.427639], [0.228717, 40.30469], [0.198779, 40.212211], [0.139861, 40.092258], [0.0577646, 40.0579451], [-0.0523456, 39.9884736], [-0.0967681, 39.9330935], [-0.1527317, 39.8532354], [-0.271542, 39.6758025], [-0.3346772, 39.4702456], [-0.3772239, 39.4669305]]}, "properties": {"line": "C6", "line_name": "Cercanías C6", "type": "rail", "color": "#E30613", "stops": ["Vinaròs", "Benicarló-Peñíscola", "Alcalá de Chivert", "Torreblanca", "Orpesa", "Benicàssim", "Castelló de la Plana", "Vila-Real", "Nules la Villavella", "Sagunt", "València-Cabanyal", "València-Estació del Nord"]}}, {"type": "Feature", "geometry": {"type": "LineString", "coordinates": [[-0.7873638, 39.427139], [-0.7229414, 39.4711268], [-0.6862639, 39.490903], [-0.5673983, 39.4857771], [-0.4632476, 39.4611179], [-0.432216, 39.4626294], [-0.4039788, 39.4502194]]}, "properties": {"line": "C3", "line_name": "Cercanías C3", "type": "rail", "color": "#E30613", "stops": ["Buñol", "Chiva", "Cheste", "Lorigüilla-Reva", "Aldaia", "Xirivella-Alqueries", "València-Sant Isidre"]}}, {"type": "Feature", "geometry": {"type": "LineString", "coordinates": [[-0.7873638, 39.427139], [-0.7229414, 39.4711268], [-0.6862639, 39.490903], [-0.5673983, 39.4857771], [-0.4632476, 39.4611179], [-0.432216, 39.4626294], [-0.4039788, 39.4502194], [-0.371422, 39.4416052], [-0.3772239, 39.4669305]]}, "properties": {"line": "C3", "line_name": "Cercanías C3", "type": "rail", "color": "#E30613", "stops": ["Buñol", "Chiva", "Cheste", "Lorigüilla-Reva", "Aldaia", "Xirivella-Alqueries", "València-Sant Isidre", "València-La Font de Sant Lluís", "València-Estació del Nord"]}}, {"type": "Feature", "geometry": {"type": "LineString", "coordinates": [[-0.2632437, 39.1778885], [-0.3082388, 39.2058471], [-0.3793139, 39.2793471], [-0.4149813, 39.3619548], [-0.3992195, 39.4000447], [-0.3953073, 39.4091934], [-0.392605, 39.4224232], [-0.3772239, 39.4669305]]}, "properties": {"line": "C1", "line_name": "Cercanías C1", "type": "rail", "color": "#E30613", "stops": ["Cullera", "Sueca", "Sollana", "Silla", "Catarroja", "Massanassa", "Alfafar-Benetússer", "València-Estació del Nord"]}}, {"type": "Feature", "geometry": {"type": "LineString", "coordinates": [[-1.2024215, 39.5707742], [-1.150367, 39.5222997], [-1.1046578, 39.4912708], [-1.0116025, 39.4773604], [-0.9025067, 39.4572264], [-0.7873638, 39.427139]]}, "properties": {"line": "C3", "line_name": "Cercanías C3", "type": "rail", "color": "#E30613", "stops": ["Utiel", "San Antonio de Requena", "Requena", "El Rebollar", "Siete Aguas", "Buñol"]}}, {"type": "Feature", "geometry": {"type": "LineString", "coordinates": [[-0.3031085, 39.6205367], [-0.271542, 39.6758025], [-0.3206548, 39.6793985], [-0.348324, 39.706408], [-0.3657542, 39.7529934], [-0.4318206, 39.8126015], [-0.4823544, 39.8471755], [-0.493863, 39.854557], [-0.5059546, 39.8744166], [-0.5693896, 39.9149777], [-0.5720537, 39.9473696]]}, "properties": {"line": "C5", "line_name": "Cercanías C5", "type": "rail", "color": "#E30613", "stops": ["Puçol", "Sagunt", "Gilet", "Estivella-Albalat Dels Tarongers", "Algimia-Ciudad", "Soneja", "Segorbe-Ciudad", "Segorbe-Arrabal", "Navajas", "Jérica-Viver", "Caudiel"]}}, {"type": "Feature", "geometry": {"type": "Point", "coordinates": [-0.0523456, 39.9884736]}, "properties": {"stop_id": "65300", "stop_name": "Castelló de la Plana", "lines": ["C6"]}}, {"type": "Feature", "geometry": {"type": "Point", "coordinates": [-0.0967681, 39.9330935]}, "properties": {"stop_id": "65208", "stop_name": "Vila-Real", "lines": ["C6"]}}, {"type": "Feature", "geometry": {"type": "Point", "coordinates": [-0.271542, 39.6758025]}, "properties": {"stop_id": "65200", "stop_name": "Sagunt", "lines": ["C5", "C6"]}}, {"type": "Feature", "geometry": {"type": "Point", "coordinates": [-0.3346772, 39.4702456]}, "properties": {"stop_id": "65003", "stop_name": "València-Cabanyal", "lines": ["C6"]}}, {"type": "Feature", "geometry": {"type": "Point", "coordinates": [-0.3772239, 39.4669305]}, "properties": {"stop_id": "65000", "stop_name": "València-Estació del Nord", "lines": ["C1", "C2", "C3", "C6"]}}, {"type": "Feature", "geometry": {"type": "Point", "coordinates": [-0.5866758, 38.9690579]}, "properties": {"stop_id": "64006", "stop_name": "L'Alcúdia de Crespins", "lines": ["C2"]}}, {"type": "Feature", "geometry": {"type": "Point", "coordinates": [-0.5245402, 38.992148]}, "properties": {"stop_id": "64100", "stop_name": "Xàtiva", "lines": ["C2"]}}, {"type": "Feature", "geometry": {"type": "Point", "coordinates": [-0.4776036, 39.0500727]}, "properties": {"stop_id": "64007", "stop_name": "Lenova-Manuel", "lines": ["C2"]}}, {"type": "Feature", "geometry": {"type": "Point", "coordinates": [-0.4696592, 39.0833385]}, "properties": {"stop_id": "64102", "stop_name": "La Pobla Llarga", "lines": ["C2"]}}, {"type": "Feature", "geometry": {"type": "Point", "coordinates": [-0.4544102, 39.1205251]}, "properties": {"stop_id": "64103", "stop_name": "Carcaixent", "lines": ["C2"]}}, {"type": "Feature", "geometry": {"type": "Point", "coordinates": [-0.4506011, 39.1531495]}, "properties": {"stop_id": "64104", "stop_name": "Alzira", "lines": ["C2"]}}, {"type": "Feature", "geometry": {"type": "Point", "coordinates": [-0.4409196, 39.1931484]}, "properties": {"stop_id": "64105", "stop_name": "Algemesí", "lines": ["C2"]}}, {"type": "Feature", "geometry": {"type": "Point", "coordinates": [-0.4299537, 39.2843027]}, "properties": {"stop_id": "64107", "stop_name": "Benifaió", "lines": ["C2"]}}, {"type": "Feature", "geometry": {"type": "Point", "coordinates": [-0.4149813, 39.3619548]}, "properties": {"stop_id": "64200", "stop_name": "Silla", "lines": ["C1", "C2"]}}, {"type": "Feature", "geometry": {"type": "Point", "coordinates": [-0.4026343, 39.3918429]}, "properties": {"stop_id": "64210", "stop_name": "Albal", "lines": ["C2"]}}, {"type": "Feature", "geometry": {"type": "Point", "coordinates": [-0.3992195, 39.4000447]}, "properties": {"stop_id": "64201", "stop_name": "Catarroja", "lines": ["C1", "C2"]}}, {"type": "Feature", "geometry": {"type": "Point", "coordinates": [-0.3953073, 39.4091934]}, "properties": {"stop_id": "64202", "stop_name": "Massanassa", "lines": ["C1", "C2"]}}, {"type": "Feature", "geometry": {"type": "Point", "coordinates": [-0.392605, 39.4224232]}, "properties": {"stop_id": "64203", "stop_name": "Alfafar-Benetússer", "lines": ["C1", "C2"]}}, {"type": "Feature", "geometry": {"type": "Point", "coordinates": [-0.6410905, 38.9429388]}, "properties": {"stop_id": "64005", "stop_name": "Montesa", "lines": ["C2"]}}, {"type": "Feature", "geometry": {"type": "Point", "coordinates": [-0.6902385, 38.9089907]}, "properties": {"stop_id": "64004", "stop_name": "Vallada", "lines": ["C2"]}}, {"type": "Feature", "geometry": {"type": "Point", "coordinates": [-0.7536507, 38.8777975]}, "properties": {"stop_id": "64003", "stop_name": "Moixent", "lines": ["C2"]}}, {"type": "Feature", "geometry": {"type": "Point", "coordinates": [-0.1797829, 38.970514]}, "properties": {"stop_id": "69110", "stop_name": "Gandia", "lines": ["C1"]}}, {"type": "Feature", "geometry": {"type": "Point", "coordinates": [-0.2150346, 39.0261489]}, "properties": {"stop_id": "69107", "stop_name": "Xeraco", "lines": ["C1"]}}, {"type": "Feature", "geometry": {"type": "Point", "coordinates": [-0.2262966, 39.0790438]}, "properties": {"stop_id": "69105", "stop_name": "Tavernes de la Valldigna", "lines": ["C1"]}}, {"type": "Feature", "geometry": {"type": "Point", "coordinates": [-0.2632437, 39.1778885]}, "properties": {"stop_id": "69104", "stop_name": "Cullera", "lines": ["C1"]}}, {"type": "Feature", "geometry": {"type": "Point", "coordinates": [-0.3082388, 39.2058471]}, "properties": {"stop_id": "69103", "stop_name": "Sueca", "lines": ["C1"]}}, {"type": "Feature", "geometry": {"type": "Point", "coordinates": [-0.3793139, 39.2793471]}, "properties": {"stop_id": "69102", "stop_name": "Sollana", "lines": ["C1"]}}, {"type": "Feature", "geometry": {"type": "Point", "coordinates": [-0.1624339, 38.9902436]}, "properties": {"stop_id": "69111", "stop_name": "Platja i Grau de Gandia", "lines": ["C1"]}}, {"type": "Feature", "geometry": {"type": "Point", "coordinates": [0.0577646, 40.0579451]}, "properties": {"stop_id": "65318", "stop_name": "Benicàssim", "lines": ["C6"]}}, {"type": "Feature", "geometry": {"type": "Point", "coordinates": [0.139861, 40.092258]}, "properties": {"stop_id": "65304", "stop_name": "Orpesa", "lines": ["C6"]}}, {"type": "Feature", "geometry": {"type": "Point", "coordinates": [0.198779, 40.212211]}, "properties": {"stop_id": "65306", "stop_name": "Torreblanca", "lines": ["C6"]}}, {"type": "Feature", "geometry": {"type": "Point", "coordinates": [0.228717, 40.30469]}, "properties": {"stop_id": "65308", "stop_name": "Alcalá de Chivert", "lines": ["C6"]}}, {"type": "Feature", "geometry": {"type": "Point", "coordinates": [0.415217, 40.427639]}, "properties": {"stop_id": "65311", "stop_name": "Benicarló-Peñíscola", "lines": ["C6"]}}, {"type": "Feature", "geometry": {"type": "Point", "coordinates": [0.455727, 40.471682]}, "properties": {"stop_id": "65312", "stop_name": "Vinaròs", "lines": ["C6"]}}, {"type": "Feature", "geometry": {"type": "Point", "coordinates": [-0.1527317, 39.8532354]}, "properties": {"stop_id": "65206", "stop_name": "Nules la Villavella", "lines": ["C6"]}}, {"type": "Feature", "geometry": {"type": "Point", "coordinates": [-0.7873638, 39.427139]}, "properties": {"stop_id": "66206", "stop_name": "Buñol", "lines": ["C3"]}}, {"type": "Feature", "geometry": {"type": "Point", "coordinates": [-0.7229414, 39.4711268]}, "properties": {"stop_id": "66207", "stop_name": "Chiva", "lines": ["C3"]}}, {"type": "Feature", "geometry": {"type": "Point", "coordinates": [-0.6862639, 39.490903]}, "properties": {"stop_id": "66208", "stop_name": "Cheste", "lines": ["C3"]}}, {"type": "Feature", "geometry": {"type": "Point", "coordinates": [-0.5673983, 39.4857771]}, "properties": {"stop_id": "66209", "stop_name": "Lorigüilla-Reva", "lines": ["C3"]}}, {"type": "Feature", "geometry": {"type": "Point", "coordinates": [-0.4632476, 39.4611179]}, "properties": {"stop_id": "66211", "stop_name": "Aldaia", "lines": ["C3"]}}, {"type": "Feature", "geometry": {"type": "Point", "coordinates": [-0.432216, 39.4626294]}, "properties": {"stop_id": "66214", "stop_name": "Xirivella-Alqueries", "lines": ["C3"]}}, {"type": "Feature", "geometry": {"type": "Point", "coordinates": [-0.4039788, 39.4502194]}, "properties": {"stop_id": "66212", "stop_name": "València-Sant Isidre", "lines": ["C3"]}}, {"type": "Feature", "geometry": {"type": "Point", "coordinates": [-0.371422, 39.4416052]}, "properties": {"stop_id": "65002", "stop_name": "València-La Font de Sant Lluís", "lines": ["C3"]}}, {"type": "Feature", "geometry": {"type": "Point", "coordinates": [-1.2024215, 39.5707742]}, "properties": {"stop_id": "66200", "stop_name": "Utiel", "lines": ["C3"]}}, {"type": "Feature", "geometry": {"type": "Point", "coordinates": [-1.150367, 39.5222997]}, "properties": {"stop_id": "66201", "stop_name": "San Antonio de Requena", "lines": ["C3"]}}, {"type": "Feature", "geometry": {"type": "Point", "coordinates": [-1.1046578, 39.4912708]}, "properties": {"stop_id": "66202", "stop_name": "Requena", "lines": ["C3"]}}, {"type": "Feature", "geometry": {"type": "Point", "coordinates": [-1.0116025, 39.4773604]}, "properties": {"stop_id": "66203", "stop_name": "El Rebollar", "lines": ["C3"]}}, {"type": "Feature", "geometry": {"type": "Point", "coordinates": [-0.9025067, 39.4572264]}, "properties": {"stop_id": "66204", "stop_name": "Siete Aguas", "lines": ["C3"]}}, {"type": "Feature", "geometry": {"type": "Point", "coordinates": [-0.3031085, 39.6205367]}, "properties": {"stop_id": "65008", "stop_name": "Puçol", "lines": ["C5"]}}, {"type": "Feature", "geometry": {"type": "Point", "coordinates": [-0.3206548, 39.6793985]}, "properties": {"stop_id": "67223", "stop_name": "Gilet", "lines": ["C5"]}}, {"type": "Feature", "geometry": {"type": "Point", "coordinates": [-0.348324, 39.706408]}, "properties": {"stop_id": "67221", "stop_name": "Estivella-Albalat Dels Tarongers", "lines": ["C5"]}}, {"type": "Feature", "geometry": {"type": "Point", "coordinates": [-0.3657542, 39.7529934]}, "properties": {"stop_id": "67216", "stop_name": "Algimia-Ciudad", "lines": ["C5"]}}, {"type": "Feature", "geometry": {"type": "Point", "coordinates": [-0.4318206, 39.8126015]}, "properties": {"stop_id": "67217", "stop_name": "Soneja", "lines": ["C5"]}}, {"type": "Feature", "geometry": {"type": "Point", "coordinates": [-0.4823544, 39.8471755]}, "properties": {"stop_id": "67215", "stop_name": "Segorbe-Ciudad", "lines": ["C5"]}}, {"type": "Feature", "geometry": {"type": "Point", "coordinates": [-0.493863, 39.854557]}, "properties": {"stop_id": "67214", "stop_name": "Segorbe-Arrabal", "lines": ["C5"]}}, {"type": "Feature", "geometry": {"type": "Point", "coordinates": [-0.5059546, 39.8744166]}, "properties": {"stop_id": "67213", "stop_name": "Navajas", "lines": ["C5"]}}, {"type": "Feature", "geometry": {"type": "Point", "coordinates": [-0.5693896, 39.9149777]}, "properties": {"stop_id": "67212", "stop_name": "Jérica-Viver", "lines": ["C5"]}}, {"type": "Feature", "geometry": {"type": "Point", "coordinates": [-0.5720537, 39.9473696]}, "properties": {"stop_id": "67211", "stop_name": "Caudiel", "lines": ["C5"]}}]}